"""S/N""","""E-waste Collection Points""","""Collection Type""","""Location""","""Postal Code""","""poster""","""Remarks""","""Website""","""lat""","""lng"""
1,"""ALBA E-WASTE SMART RECYCLING PTE LTD""","""1. Permanent E-bin""","""20 TUAS LOOP""",637350,637350,"""E-waste accepted: All regulated consumer products under First Schedule at""","""https://alba-ewaste.sg""",1.320180691,103.6367538
2,"""223 CHOA CHU KANG CENTRAL""","""1. Permanent E-bin""","""223 CHOA CHU KANG CENTRAL""",680223,680223,"""E-waste accepted: ICT equipment, Batteries and Lamps only""","""https://alba-ewaste.sg""",1.381484134,103.7445335
4,"""54 CHIN SWEE RD""","""1. Permanent E-bin""","""54 CHIN SWEE ROAD""",160054,160054,"""E-waste accepted: ICT equipment, Batteries and Lamps only""","""https://alba-ewaste.sg""",1.287436414,103.8411759
5,"""68 GEYLANG BAHRU""","""1. Permanent E-bin""","""68 GEYLANG BAHRU, MAIN ENTRANCE""",330068,330068,"""E-waste accepted: ICT equipment, Batteries and Lamps only""","""https://alba-ewaste.sg""",1.321953855,103.8698434
6,"""888 PLAZA""","""1. Permanent E-bin""","""888 WOODLANDS DRIVE 50, 888 PLAZA, COMMON CORRIDOR""",730888,730888,"""E-waste accepted: ICT equipment, Batteries and Lamps only""","""https://alba-ewaste.sg""",1.437118561,103.7953161
7,"""ACE THE PLACE CC""","""1. Permanent E-bin""","""120 WOODLANDS AVENUE 1, ACE THE PLACE CC, BESIDE CC OFFICE ENTRANCE""",739069,739069,"""E-waste accepted: ICT equipment, Batteries and Lamps only""","""https://alba-ewaste.sg""",1.42749279,103.7922408
8,"""ALEXANDRA HOSPITAL""","""1. Permanent E-bin""","""378 ALEXANDRA ROAD, BLK 21, LEVEL 1""",159964,159964,"""E-waste accepted: ICT equipment, Batteries and Lamps only""","""https://alba-ewaste.sg""",1.288598041,103.7999739
9,"""ANCHORVALE CC""","""1. Permanent E-bin""","""59 ANCHORVALE ROAD, ANCHORVALE COMMUNITY CLUB, MAIN LOBBY""",544965,544965,"""E-waste accepted: ICT equipment, Batteries and Lamps only""","""https://alba-ewaste.sg""",1.397083298,103.8866942
10,"""ANG MO KIO CC""","""1. Permanent E-bin""","""ANG MO KIO AVENUE 1, MAIN LOBBY ENTRANCE""",569976,569976,"""E-waste accepted: ICT equipment, Batteries and Lamps only""","""https://alba-ewaste.sg""",1.366861255,103.8406852
11,"""BEDOK INDUSTRIAL PARK E""","""1. Permanent E-bin""","""3013 BEDOK INDUSTRIAL PARK E, PAVILION""",489978,489978,"""E-waste accepted: ICT equipment, Batteries and Lamps only""","""https://alba-ewaste.sg""",1.336748347,103.9499004
12,"""BEDOK IXORA RC""","""1. Permanent E-bin""","""51 NEW UPPER CHANGI ROAD, #01-1500""",461051,461051,"""E-waste accepted: ICT equipment, Batteries and Lamps only""","""https://alba-ewaste.sg""",1.323429858,103.9422694
13,"""BEDOK RESERVOIR-PUNGGOL CAPEVIEW RC""","""1. Permanent E-bin""","""477A UPPER SERANGOON VIEW, LEVEL 1""",531477,531477,"""E-waste accepted: ICT equipment, Batteries and Lamps only""","""https://alba-ewaste.sg""",1.378308758,103.903842
14,"""BOON LAY VIEW RN""","""1. Permanent E-bin""","""218D BOON LAY AVE #01-309, DROP OFF AREA""",640218,640218,"""E-waste accepted: ICT equipment, Batteries and Lamps only""","""https://alba-ewaste.sg""",1.350218608,103.7102557
15,"""BOON LAY ZONE B RN""","""1. Permanent E-bin""","""682A JURONG WEST CENTRAL 1 #01-104""",641682,641682,"""E-waste accepted: ICT equipment, Batteries and Lamps only""","""https://alba-ewaste.sg""",1.343994515,103.7053963
16,"""BOON LAY ZONE C RN""","""1. Permanent E-bin""","""260 BOON LAY DRIVE""",640260,640260,"""E-waste accepted: ICT equipment, Batteries and Lamps only""","""https://alba-ewaste.sg""",1.345095443,103.7080333
17,"""BOON LAY ZONE F RN""","""1. Permanent E-bin""","""674A JURONG WEST STREET 65, #01-66, VOID DECK""",641674,641674,"""E-waste accepted: ICT equipment, Batteries and Lamps only""","""https://alba-ewaste.sg""",1.344461337,103.7023153
18,"""BRADDELL HEIGHTS ZONE B RC""","""1. Permanent E-bin""","""2A LORONG LEW LIAN, MULTI STOREY CARPARK, LEVEL 1""",532002,532002,"""E-waste accepted: ICT equipment, Batteries and Lamps only""","""https://alba-ewaste.sg""",1.349911239,103.8758003
19,"""BRADDELL HEIGHTS ZONE C RC""","""1. Permanent E-bin""","""410 SERANGOON CENTRAL, #01-327""",550410,550410,"""E-waste accepted: ICT equipment, Batteries and Lamps only""","""https://alba-ewaste.sg""",1.347778967,103.8738429
20,"""BRADDELL HEIGHTS ZONE F RC""","""1. Permanent E-bin""","""318 SERANGOON AVE 2, #01-324""",550318,550318,"""E-waste accepted: ICT equipment, Batteries and Lamps only""","""https://alba-ewaste.sg""",1.352840462,103.8671648
21,"""BRICKLAND MIRAGE QUAD RN""","""1. Permanent E-bin""","""817A KEAT HONG LINK""",682817,682817,"""E-waste accepted: ICT equipment, Batteries and Lamps only""","""https://alba-ewaste.sg""",1.377087746,103.7487681
22,"""BUANGKOK SQUARE""","""1. Permanent E-bin""","""991 BUANGKOK LINK, LEVEL 1""",530991,530991,"""E-waste accepted: ICT equipment, Batteries and Lamps only""","""https://alba-ewaste.sg""",1.384334266,103.8816231
23,"""BUGIS JUNCTION TOWERS""","""1. Permanent E-bin""","""230 VICTORIA STREET, FOUNTAIN LOBBY""",188024,188024,"""E-waste accepted: ICT equipment, Batteries and Lamps only""","""https://alba-ewaste.sg""",1.299816399,103.8559236
24,"""BUKIT MERAH CC""","""1. Permanent E-bin""","""4000 JALAN BUKIT MERAH""",159465,159465,"""E-waste accepted: ICT equipment, Batteries and Lamps only""","""https://alba-ewaste.sg""",1.285254273,103.8158285
25,"""BUKIT PANJANG CC""","""1. Permanent E-bin""","""8 PENDING ROAD, MAIN LOBBY""",678295,678295,"""E-waste accepted: ICT equipment, Batteries and Lamps only""","""https://alba-ewaste.sg""",1.376256831,103.7708359
27,"""BUKIT TIMAH PLAZA""","""1. Permanent E-bin""","""1 JALAN ANAK BUKIT BUKIT TIMAH PLAZA, BUKIT TIMAH PLAZA, RESIDENTIAL BLOCK CARPARK""",588996,588996,"""E-waste accepted: ICT equipment, Batteries and Lamps only""","""https://alba-ewaste.sg""",1.338631653,103.7785854
28,"""CANBERRA PLAZA""","""1. Permanent E-bin""","""133 CANBERRA VIEW, LEVEL 1""",750133,750133,"""E-waste accepted: ICT equipment, Batteries and Lamps only""","""https://alba-ewaste.sg""",1.443495445,103.8303454
29,"""CAPITALAND JCUBE""","""1. Permanent E-bin""","""2 JURONG EAST CENTRAL 1, REAR ENTRANCE""",609731,609731,"""E-waste accepted: ICT equipment, Batteries and Lamps only""","""https://alba-ewaste.sg""",1.333263518,103.7403175
30,"""CAPITALAND TAMPINES MALL""","""1. Permanent E-bin""","""4 TAMPINES CENTRAL 5, CUSTOMER SERVICE COUNTER""",529510,529510,"""E-waste accepted: ICT equipment, Batteries and Lamps only""","""https://alba-ewaste.sg""",1.352504683,103.9446826
31,"""CAUSEWAY POINT""","""1. Permanent E-bin""","""1 WOODLANDS SQUARE, MAIN ENTRANCE""",738099,738099,"""E-waste accepted: ICT equipment, Batteries and Lamps only""","""https://alba-ewaste.sg""",1.435900079,103.7857958
32,"""CENTRAL PLAZA""","""1. Permanent E-bin""","""298 TIONG BAHRU ROAD, COMMON CORRIDOR (LETTERBOX)""",168730,168730,"""E-waste accepted: ICT equipment, Batteries and Lamps only""","""https://alba-ewaste.sg""",1.286299372,103.8280935
33,"""CHANGI GENERAL HOSPITAL""","""1. Permanent E-bin""","""2 SIMEI STREET 3, CHANGI GENERAL HOSPITAL, B1 MAIN BUILDING LOBBY D""",529889,529889,"""E-waste accepted: ICT equipment, Batteries and Lamps only""","""https://alba-ewaste.sg""",1.340695382,103.9494212
35,"""CI YUAN CC""","""1. Permanent E-bin""","""51 HOUGANG AVENUE 9, MAIN LOBBY""",538776,538776,"""E-waste accepted: ICT equipment, Batteries and Lamps only""","""https://alba-ewaste.sg""",1.375322538,103.8829319
36,"""CITY PLAZA""","""1. Permanent E-bin""","""810 GEYLANG RD, LEVEL 1""",409286,409286,"""E-waste accepted: ICT equipment, Batteries and Lamps only""","""https://alba-ewaste.sg""",1.314708663,103.8935086
37,"""CITY SQUARE MALL @ 180 KITCHENER ROAD""","""1. Permanent E-bin""","""180 KITCHENER ROAD, B4 BESIDE TRAVELLATOR LOBBY""",208539,208539,"""E-waste accepted: ICT equipment, Batteries and Lamps only""","""https://alba-ewaste.sg""",1.311305171,103.8564218
38,"""CLEMENTI CC""","""1. Permanent E-bin""","""220 CLEMENTI AVENUE 4, MAIN ENTRANCE""",129880,129880,"""E-waste accepted: ICT equipment, Batteries and Lamps only""","""https://alba-ewaste.sg""",1.318815194,103.7681537
40,"""COMPASS ONE""","""1. Permanent E-bin""","""1 SENGKANG SQUARE, #B1-52/53, MRT EXIT/ENTRANCE""",545078,545078,"""E-waste accepted: ICT equipment, Batteries and Lamps only""","""https://alba-ewaste.sg""",1.392053142,103.8950705
41,"""COMPASSVALE SOUTHGATE RC""","""1. Permanent E-bin""","""201B COMPASSVALE DRIVE, COMPASSVALE SOUTHGATE RC, #01-545, VOID DECK""",542201,542201,"""E-waste accepted: ICT equipment, Batteries and Lamps only""","""https://alba-ewaste.sg""",1.388313116,103.8939236
42,"""COMPASSVALE VILLA RC""","""1. Permanent E-bin""","""206C COMPASSVALE LANE, COMPASSVALE VILLA RC, VOID DECK""",543206,543206,"""E-waste accepted: ICT equipment, Batteries and Lamps only""","""https://alba-ewaste.sg""",1.386818298,103.8975474
43,"""CONNECTION ONE""","""1. Permanent E-bin""","""168 JALAN BUKIT MARAH, SURBANA ONE, LEVEL 1""",150169,150169,"""E-waste accepted: ICT equipment, Batteries and Lamps only""","""https://alba-ewaste.sg""",1.28331722,103.8188631
45,"""DAWSON PLACE""","""1. Permanent E-bin""","""57 DAWSON RD, DAWSON PLACE""",142057,142057,"""E-waste accepted: ICT equipment, Batteries and Lamps only""","""https://alba-ewaste.sg""",1.292703399,103.810959
46,"""DEPOT HEIGHTS SHOPPING CENTRE""","""1. Permanent E-bin""","""108 DEPOT ROAD, DEPOT HEIGHTS SHOPPING CENTRE""",100108,100108,"""E-waste accepted: ICT equipment, Batteries and Lamps only""","""https://alba-ewaste.sg""",1.280966807,103.8102982
47,"""ELIAS MALL""","""1. Permanent E-bin""","""623 ELIAS ROAD, ELIAS MALL, MAIN ENTRANCE""",510623,510623,"""E-waste accepted: ICT equipment, Batteries and Lamps only""","""https://alba-ewaste.sg""",1.377828766,103.9423643
48,"""ENVIRONMENT BUILDING (MSE/NEA)""","""1. Permanent E-bin""","""40 SCOTTS ROAD""",228231,228231,"""E-waste accepted: ICT equipment, Batteries and Lamps only""","""https://alba-ewaste.sg""",1.310522321,103.8362252
49,"""EUNOS CC""","""1. Permanent E-bin""","""180 BEDOK RESERVOIR ROAD, MAIN ENTRANCE""",479220,479220,"""E-waste accepted: ICT equipment, Batteries and Lamps only""","""https://alba-ewaste.sg""",1.332626783,103.91523
50,"""FAJAR SHOPPING CENTRE""","""1. Permanent E-bin""","""445 FAJAR ROAD, FAJAR SHOPPING CENTRE, COMMON CORRIDOR""",670445,670445,"""E-waste accepted: ICT equipment, Batteries and Lamps only""","""https://alba-ewaste.sg""",1.383574699,103.7708685
51,"""FARRER GARDENS RC""","""1. Permanent E-bin""","""4 QUEEN’S ROAD, FARRER GARDENS RC""",260004,260004,"""E-waste accepted: ICT equipment, Batteries and Lamps only""","""https://alba-ewaste.sg""",1.318832253,103.808062
52,"""FOOD CANOPY COFFEE SHOP""","""1. Permanent E-bin""","""260 ANG MO KIO STREET 21, #01-06""",560260,560260,"""E-waste accepted: ICT equipment, Batteries and Lamps only""","""https://alba-ewaste.sg""",1.368916171,103.8344995
53,"""FUCHUN CC""","""1. Permanent E-bin""","""1 WOODLANDS STREET 31, FUCHUN CC, LIFT LOBBY""",738581,738581,"""E-waste accepted: ICT equipment, Batteries and Lamps only""","""https://alba-ewaste.sg""",1.429586606,103.7748501
54,"""FUSIONOPOLIS ONE""","""1. Permanent E-bin""","""3 FUSIONOPOLIS WAY, BASEMENT 2 CONNEXIS""",138633,138633,"""E-waste accepted: ICT equipment, Batteries and Lamps only""","""https://alba-ewaste.sg""",1.299011321,103.7875672
55,"""GEK POH SHOPPING CENTRE""","""1. Permanent E-bin""","""762 JURONG WEST STREET 75, GEK POH SHOPPING CENTRE, PRIME SUPERMARKET ENTRANCE""",640762,640762,"""E-waste accepted: ICT equipment, Batteries and Lamps only""","""https://alba-ewaste.sg""",1.348743571,103.6977321
56,"""GERMAN CENTRE""","""1. Permanent E-bin""","""25 INTERNATIONAL BUSINESS PARK, MAIN LOBBY""",609916,609916,"""E-waste accepted: ICT equipment, Batteries and Lamps only""","""https://alba-ewaste.sg""",1.325199517,103.7463772
57,"""GREENRIDGE SHOPPING CENTRE""","""1. Permanent E-bin""","""524A JELAPANG ROAD, GREENRIDGE SHOPPING CENTRE, GROUND FLOOR - SECURITY COUNTER""",671524,671524,"""E-waste accepted: ICT equipment, Batteries and Lamps only""","""https://alba-ewaste.sg""",1.385405693,103.7662285
61,"""HDB HUB""","""1. Permanent E-bin""","""6 LORONG TOA PAYOH, HDB HUB, OPPOSITE OLD CHANG KEE""",310480,310480,"""E-waste accepted: ICT equipment, Batteries and Lamps only""","""https://alba-ewaste.sg""",1.332236224,103.8485739
62,"""HDB-POTONG PASIR""","""1. Permanent E-bin""","""121 POTONG PASIR AVENUE, HDB-POTONG PASIR, MAIN ENTRANCE""",350121,350121,"""E-waste accepted: ICT equipment, Batteries and Lamps only""","""https://alba-ewaste.sg""",1.335760292,103.865597
63,"""HEALTH SCIENCE AUTHORITY""","""1. Permanent E-bin""","""11 OUTRAM ROAD, LEVEL 1""",169078,169078,"""E-waste accepted: ICT equipment, Batteries and Lamps only""","""https://alba-ewaste.sg""",1.280448121,103.8385034
64,"""HEARTBEAT @ BEDOK (KAMPONG CHAI CHEE CC)""","""1. Permanent E-bin""","""11 BEDOK NORTH STREET 1, MAIN ATRIUM""",469662,469662,"""E-waste accepted: ICT equipment, Batteries and Lamps only""","""https://alba-ewaste.sg""",1.326864386,103.9321295
65,"""HEWLETT-PACKARD @ HP ENTERPRISE""","""1. Permanent E-bin""","""1 DEPOT CLOSE, HP ENTERPRISE""",109841,109841,"""E-waste accepted: ICT equipment, Batteries and Lamps only""","""https://alba-ewaste.sg""",1.282431349,103.8050324
66,"""HILLVIEW CC""","""1. Permanent E-bin""","""1 HILLVIEW RISE, HILLVIEW CC, MAIN LOBBY""",667970,667970,"""E-waste accepted: ICT equipment, Batteries and Lamps only""","""https://alba-ewaste.sg""",1.361943196,103.764297
67,"""HONG KAH NORTH CC""","""1. Permanent E-bin""","""30 BUKIT BATOK STREET 31, HONG KAH NORTH CC, REAR ENTRANCE""",659440,659440,"""E-waste accepted: ICT equipment, Batteries and Lamps only""","""https://alba-ewaste.sg""",1.359033397,103.7494868
68,"""HOUGANG CC""","""1. Permanent E-bin""","""35 HOUGANG AVENUE 3, MAIN ENTRANCE""",538840,538840,"""E-waste accepted: ICT equipment, Batteries and Lamps only""","""https://alba-ewaste.sg""",1.364751244,103.892728
69,"""I12 KATONG""","""1. Permanent E-bin""","""112 EAST COAST ROAD, I12 KATONG, B2 TRAVELLATOR""",428802,428802,"""E-waste accepted: ICT equipment, Batteries and Lamps only""","""https://alba-ewaste.sg""",1.305206536,103.9050461
70,"""ICA @ PASIR PANJANG TERMINAL BUILDING 3""","""1. Permanent E-bin""","""3 HARBOUR DRIVE, PASIR PANJANG TERMINAL BUILDING 3""",117404,117404,"""E-waste accepted: ICT equipment, Batteries and Lamps only""","""https://alba-ewaste.sg""",1.273665351,103.7927127
73,"""ITE COLLEGE CENTRAL""","""1. Permanent E-bin""","""2 ANG MO KIO DRIVE, ATRIUM LEVEL""",567720,567720,"""E-waste accepted: ICT equipment, Batteries and Lamps only""","""https://alba-ewaste.sg""",1.377892049,103.856412
74,"""ITE COLLEGE EAST""","""1. Permanent E-bin""","""10 SIMEI AVE, ITE COLLEGE EAST, #B1-14, ADMIN BUILDING LOBBY, CUSTOMER VISITOR CENTRE""",486047,486047,"""E-waste accepted: ICT equipment, Batteries and Lamps only""","""https://alba-ewaste.sg""",1.333447563,103.9553108
75,"""ITE COLLEGE WEST""","""1. Permanent E-bin""","""1 CHOA CHU KANG GROVE, ITE COLLEGE WEST, BLOCK 1, LEVEL 3 FOOD CANOPY""",688236,688236,"""E-waste accepted: ICT equipment, Batteries and Lamps only""","""https://alba-ewaste.sg""",1.374906509,103.7522337
76,"""JURONG SPRING CC""","""1. Permanent E-bin""","""8 JURONG WEST STREET 52, JURONG SPRING CC, LOBBY""",649296,649296,"""E-waste accepted: ICT equipment, Batteries and Lamps only""","""https://alba-ewaste.sg""",1.348330169,103.718179
77,"""KAMPONG GLAM CC""","""1. Permanent E-bin""","""385 BEACH ROAD, KAMPONG GLAM CC, MAIN LOBBY""",199581,199581,"""E-waste accepted: ICT equipment, Batteries and Lamps only""","""https://alba-ewaste.sg""",1.302795227,103.8635979
78,"""KAMPONG UBI INDUSTRIAL ESTATE BLOCK 3024A""","""1. Permanent E-bin""","""3024A UBI RD 1, PAVILION""",408718,408718,"""E-waste accepted: ICT equipment, Batteries and Lamps only""","""https://alba-ewaste.sg""",1.329859653,103.8960582
79,"""KEAT HONG CC""","""1. Permanent E-bin""","""2 CHOA CHU KANG LOOP, KEAT HONG CC, WALKWAY CORRIDOR""",689687,689687,"""E-waste accepted: ICT equipment, Batteries and Lamps only""","""https://alba-ewaste.sg""",1.384095872,103.7449494
80,"""KEBUN BARU CC""","""1. Permanent E-bin""","""ANG MO KIO AVENUE 4, GROUND FLOOR - OPPOSITE BURGER KING""",569897,569897,"""E-waste accepted: ICT equipment, Batteries and Lamps only""","""https://alba-ewaste.sg""",1.373007502,103.8376124
81,"""KENT RIDGE CAMPUS""","""1. Permanent E-bin""","""27 SCIENCE DRIVE 1, KENT RIDGE CAMPUS, OUTSIDE LT27 AND LT29 STUDENT SPACE, LEVEL 1""",117541,117541,"""E-waste accepted: ICT equipment, Batteries and Lamps only""","""https://alba-ewaste.sg""",1.295467181,103.779774
82,"""KENT RIDGE CAMPUS""","""1. Permanent E-bin""","""12 KENT RIDGE CRES, KENT RIDGE CAMPUS, CENTRAL LIBRARY FORUM SPACE, LEVEL 1""",119275,119275,"""E-waste accepted: ICT equipment, Batteries and Lamps only""","""https://alba-ewaste.sg""",1.296728869,103.7731518
83,"""KITCHENER COMPLEX""","""1. Permanent E-bin""","""809 FRENCH ROAD, KITCHENER COMPLEX, MAIN LOBBY""",200808,200808,"""E-waste accepted: ICT equipment, Batteries and Lamps only""","""https://alba-ewaste.sg""",1.308782165,103.8613785
84,"""LENG KEE CC""","""1. Permanent E-bin""","""400 LENGKOK BAHRU""",159049,159049,"""E-waste accepted: ICT equipment, Batteries and Lamps only""","""https://alba-ewaste.sg""",1.28955909,103.8146641
85,"""LOT ONE SHOPPERS' MALL""","""1. Permanent E-bin""","""21 CHOA CHU KANG AVE 4, WALKWAY BESIDE MCDONALD'S, WALKWAY BESIDE MACDONALD'S""",689812,689812,"""E-waste accepted: ICT equipment, Batteries and Lamps only""","""https://alba-ewaste.sg""",1.385068365,103.7449504
86,"""LOYANG POINT""","""1. Permanent E-bin""","""259 PASIR RIS STREET 21, LOYANG POINT, MAIN LOBBY (ATM AREA)""",510258,510258,"""E-waste accepted: ICT equipment, Batteries and Lamps only""","""https://alba-ewaste.sg""",1.367066342,103.9646356
87,"""MAPLETREE BUSINESS CITY""","""1. Permanent E-bin""","""10 PASIR PANJANG ROAD""",117438,117438,"""E-waste accepted: ICT equipment, Batteries and Lamps only""","""https://alba-ewaste.sg""",1.274915422,103.7991449
90,"""MARINE PARADE CC""","""1. Permanent E-bin""","""278 MARINE PARADE ROAD, MARINE PARADE CC, MAIN ENTRANCE""",449282,449282,"""E-waste accepted: ICT equipment, Batteries and Lamps only""","""https://alba-ewaste.sg""",1.30487639,103.9096402
92,"""MARYMOUNT CC""","""1. Permanent E-bin""","""SIN MING AVE, MAIN LOBBY""",575738,575738,"""E-waste accepted: ICT equipment, Batteries and Lamps only""","""https://alba-ewaste.sg""",1.362137572,103.8412862
93,"""MOM SERVICES CENTRE""","""1. Permanent E-bin""","""1500 BENDEMEER ROAD, MOM SERVICES CENTRE, LOBBY""",339946,339946,"""E-waste accepted: ICT equipment, Batteries and Lamps only""","""https://alba-ewaste.sg""",1.326294324,103.8690502
94,"""MSF BUILDING""","""1. Permanent E-bin""","""512 THOMSON ROAD MSF BUILDING LOBBY, MAIN LOBBY""",298136,298136,"""E-waste accepted: ICT equipment, Batteries and Lamps only""","""https://alba-ewaste.sg""",1.333650245,103.8394192
95,"""NANYANG ACADEMY OF FINE ARTS""","""1. Permanent E-bin""","""80 BENCOOLEN STREET, LEVEL 1 WING A, LIFT LOBBY""",189655,189655,"""E-waste accepted: ICT equipment, Batteries and Lamps only""","""https://alba-ewaste.sg""",1.299874147,103.8514658
96,"""NANYANG POLYTECHNIC, BLOCK E (NORTH CANTEEN)""","""1. Permanent E-bin""","""ANG MO KIO AVENUE 8, NANYANG POLYTECHNIC, BLOCK E (NORTH CANTEEN)""",569830,569830,"""E-waste accepted: ICT equipment, Batteries and Lamps only""","""https://alba-ewaste.sg""",1.380340899,103.8480833
97,"""NANYANG TECHNOLOGICAL UNIVERSITY HALL 6""","""1. Permanent E-bin""","""21 LIEN YING CHOW DRIVE, NANYANG TECHNOLOGICAL UNIVERSITY, HALL 6 BLOCK A""",637296,637296,"""E-waste accepted: ICT equipment, Batteries and Lamps only""","""https://alba-ewaste.sg""",1.348171832,103.6868043
98,"""NANYANG TECHNOLOGICAL UNIVERSITY NORTH SPINE PLAZA""","""1. Permanent E-bin""","""76 NANYANG DRIVE, SPIRAL STAIRCASE NEAR LECTURE THEATRE 1A""",637331,637331,"""E-waste accepted: ICT equipment, Batteries and Lamps only""","""https://alba-ewaste.sg""",1.347130489,103.6800338
99,"""NATIONAL PARKS BOARD HQ""","""1. Permanent E-bin""","""1 CLUNY ROAD, NATIONAL PARKS BOARD HQ, SINGAPORE BOTANIC GARDENS, NASSIM GATE INFO COUNTER""",259569,259569,"""E-waste accepted: ICT equipment, Batteries and Lamps only""","""https://alba-ewaste.sg""",1.322156643,103.8181859
100,"""NEE SOON CENTRAL CC""","""1. Permanent E-bin""","""1 NORTHPOINT DRIVE NEE SOON CENTRAL COMMUNITY CLUB, NEE SOON CENTRAL CC, INSIDE NORTHPOINT CITY""",768019,768019,"""E-waste accepted: ICT equipment, Batteries and Lamps only""","""https://alba-ewaste.sg""",1.428754606,103.8363245
101,"""NEE SOON EAST CC""","""1. Permanent E-bin""","""1 YISHUN AVENUE 9, NEE SOON EAST CC, MAIN LOBBY""",768893,768893,"""E-waste accepted: ICT equipment, Batteries and Lamps only""","""https://alba-ewaste.sg""",1.430771055,103.8385982
102,"""NEE SOON SOUTH CC""","""1. Permanent E-bin""","""30 YISHUN STREET 81, NEE SOON SOUTH CC, VOID DECK (TEMPORARY) CC UNDERGOING RENOVATION""",768455,768455,"""E-waste accepted: ICT equipment, Batteries and Lamps only""","""https://alba-ewaste.sg""",1.414973677,103.8348798
104,"""NG TENG FONG GENERAL HOSPITAL""","""1. Permanent E-bin""","""1 JURONG EAST STREET 21, NG TENG FONG GENERAL HOSPITAL, TOWER B, LEVEL 2""",609606,609606,"""E-waste accepted: ICT equipment, Batteries and Lamps only""","""https://alba-ewaste.sg""",1.335533826,103.7438655
105,"""NGEE ANN POLYTECHNIC, BLK 22""","""1. Permanent E-bin""","""535 CLEMENTI ROAD, NGEE ANN POLYCLINIC, BLK 22, FOODCOURT""",599489,599489,"""E-waste accepted: ICT equipment, Batteries and Lamps only""","""https://alba-ewaste.sg""",1.333784623,103.7752943
106,"""NOVENA SQUARE""","""1. Permanent E-bin""","""238 THOMSON ROAD, NOVENA SQUARE, LEVEL 3""",307683,307683,"""E-waste accepted: ICT equipment, Batteries and Lamps only""","""https://alba-ewaste.sg""",1.320211007,103.8436568
108,"""OASIS TERRACES""","""1. Permanent E-bin""","""681 PUNGGOL DRIVE, OASIS TERRACES, LVL 1 OPPOSITE ANYTIME FITNESS""",820681,820681,"""E-waste accepted: ICT equipment, Batteries and Lamps only""","""https://alba-ewaste.sg""",1.402780157,103.9132151
110,"""OUR TAMPINES HUB""","""1. Permanent E-bin""","""1 TAMPINES WALK, CENTRAL PLAZA (LIBRARY EXIT)""",528523,528523,"""E-waste accepted: ICT equipment, Batteries and Lamps only""","""https://alba-ewaste.sg""",1.353300307,103.9405254
111,"""PASIR RIS WEST PLAZA""","""1. Permanent E-bin""","""735 PASIR RIS STREET 72, PASIR RIS WEST PLAZA, MAIN ENTRANCE""",510735,510735,"""E-waste accepted: ICT equipment, Batteries and Lamps only""","""https://alba-ewaste.sg""",1.379848867,103.9367217
112,"""PASSION WAVE @ JURONG LAKE GARDENS""","""1. Permanent E-bin""","""100 YUAN CHING RD, RECEPTION""",618662,618662,"""E-waste accepted: ICT equipment, Batteries and Lamps only""","""https://alba-ewaste.sg""",1.339359562,103.7272995
113,"""PASSION WAVE @ MARINA BAY""","""1. Permanent E-bin""","""11 RHU CROSS, MAIN ENTRANCE""",437440,437440,"""E-waste accepted: ICT equipment, Batteries and Lamps only""","""https://alba-ewaste.sg""",1.294993278,103.8667755
114,"""PAYA LEBAR KOVAN CC""","""1. Permanent E-bin""","""207 HOUGANG STREET 21, MAIN ENTRANCE LOBBY""",530207,530207,"""E-waste accepted: ICT equipment, Batteries and Lamps only""","""https://alba-ewaste.sg""",1.35759831,103.8863135
115,"""PAYA LEBAR QUARTER (PLQ)""","""1. Permanent E-bin""","""10 PAYA LEBAR ROAD, PAYA LEBAR QUARTER (PLQ), LEVEL 1""",409057,409057,"""E-waste accepted: ICT equipment, Batteries and Lamps only""","""https://alba-ewaste.sg""",1.317561159,103.8928367
116,"""PAYA LEBAR SQUARE""","""1. Permanent E-bin""","""60 PAYA LEBAR RD, PAYA LEBAR SQUARE, LEVEL 2 CARPARK BESIDE OFFICE LIFT LOBBY 1""",409051,409051,"""E-waste accepted: ICT equipment, Batteries and Lamps only""","""https://alba-ewaste.sg""",1.31881487,103.8925808
117,"""PAYA LEBAR ZONE 5 RC""","""1. Permanent E-bin""","""116 HOUGANG AVENUE 1, PAYA LEBAR ZONE 5 RC, #01-1206, VOID DECK""",530116,530116,"""E-waste accepted: ICT equipment, Batteries and Lamps only""","""https://alba-ewaste.sg""",1.35313872,103.8877274
118,"""PINE CLOSE RC""","""1. Permanent E-bin""","""5 PINE CLOSE, #01-141, VOID DECK""",391005,391005,"""E-waste accepted: ICT equipment, Batteries and Lamps only""","""https://alba-ewaste.sg""",1.307043059,103.8826884
119,"""PIONEER MALL""","""1. Permanent E-bin""","""638 JURONG WEST STREET 61, PIONEER MALL, MAIN LOBBY NEAR MACDONALDS""",640638,640638,"""E-waste accepted: ICT equipment, Batteries and Lamps only""","""https://alba-ewaste.sg""",1.341673319,103.6972445
120,"""PIONEER ZONE 12 RN""","""1. Permanent E-bin""","""653A JURONG WEST ST 61, PIONEER ZONE 12 RN, #01-422, VOID DECK""",641653,641653,"""E-waste accepted: ICT equipment, Batteries and Lamps only""","""https://alba-ewaste.sg""",1.336891377,103.6966388
121,"""PIONEER ZONE 9 RN""","""1. Permanent E-bin""","""602 JURONG WEST ST 65, VOID DECK""",640602,640602,"""E-waste accepted: ICT equipment, Batteries and Lamps only""","""https://alba-ewaste.sg""",1.339253398,103.7002192
122,"""POTONG PASIR CC""","""1. Permanent E-bin""","""6 POTONG PASIR AVENUE 2, CONSTITUENCY OFFICE""",358361,358361,"""E-waste accepted: ICT equipment, Batteries and Lamps only""","""https://alba-ewaste.sg""",1.332582969,103.8671398
123,"""PUNGGOL 21 CC""","""1. Permanent E-bin""","""80 PUNGGOL FIELD, PUNGGOL 21 CC, MAIN LOBBY""",828815,828815,"""E-waste accepted: ICT equipment, Batteries and Lamps only""","""https://alba-ewaste.sg""",1.393443165,103.9136646
124,"""PUNGGOL CLOVER RN""","""1. Permanent E-bin""","""204A PUNGGOL FIELD, PUNGGOL CLOVER RN, #01-288, VOID DECK""",821204,821204,"""E-waste accepted: ICT equipment, Batteries and Lamps only""","""https://alba-ewaste.sg""",1.398778276,103.9029109
125,"""PUNGGOL OASIS RC""","""1. Permanent E-bin""","""176C EDGEFIELD PLAINS, PUNGGOL OASIS RC, #01-569, VOID DECK""",821175,821175,"""E-waste accepted: ICT equipment, Batteries and Lamps only""","""https://alba-ewaste.sg""",1.397404216,103.9089737
126,"""PUNGGOL PARC TERRACE RN""","""1. Permanent E-bin""","""312B SUMANG LINK, #01-171""",823312,823312,"""E-waste accepted: ICT equipment, Batteries and Lamps only""","""https://alba-ewaste.sg""",1.410907281,103.9011861
127,"""PUNGGOL VISTA CC""","""1. Permanent E-bin""","""602 PUNGGOL CENTRAL, PUNGGOL VISTA CC, MAIN ENTRANCE""",820602,820602,"""E-waste accepted: ICT equipment, Batteries and Lamps only""","""https://alba-ewaste.sg""",1.403284292,103.9072886
128,"""PUNGGOL WEST CC""","""1. Permanent E-bin""","""259C PUNGGOL FIELD, PUNGGOL WEST CC, VOID DECK""",823259,823259,"""E-waste accepted: ICT equipment, Batteries and Lamps only""","""https://alba-ewaste.sg""",1.404534086,103.8956655
129,"""QUEENSTOWN CC""","""1. Permanent E-bin""","""365 COMMONWEALTH AVE, MAIN ENTRANCE""",149732,149732,"""E-waste accepted: ICT equipment, Batteries and Lamps only""","""https://alba-ewaste.sg""",1.299150242,103.8013051
130,"""RAFFLES CITY SHOPPING CENTRE""","""1. Permanent E-bin""","""252 NORTH BRIDGE RD""",179103,179103,"""E-waste accepted: ICT equipment, Batteries and Lamps only""","""https://alba-ewaste.sg""",1.293760281,103.8527683
131,"""REPAIR KOPITIAM""","""1. Permanent E-bin""","""565 PASIR RIS ST 51, REPAIR KOPITIAM, VOID DECK""",510565,510565,"""E-waste accepted: ICT equipment, Batteries and Lamps only""","""https://alba-ewaste.sg""",1.36882714,103.9502962
132,"""REPUBLIC POLYTECHNIC""","""1. Permanent E-bin""","""9 WOODLANDS AVENUE 9, REPUBLIC POLYTECHNIC,  W3, LEVEL 3 FOODCOURT (UNDER RENOVATION)""",738964,738964,"""E-waste accepted: ICT equipment, Batteries and Lamps only""","""https://alba-ewaste.sg""",1.443782044,103.7843188
134,"""REVENUE HOUSE (LEVEL 2)""","""1. Permanent E-bin""","""55 NEWTON RD, LEVEL 2""",307987,307987,"""E-waste accepted: ICT equipment, Batteries and Lamps only""","""https://alba-ewaste.sg""",1.31948959,103.8419753
135,"""RIVERVALE ARC RC""","""1. Permanent E-bin""","""180C RIVERVALE CRESCENT, RIVERVALE ARC RC, #01-367, VOID DECK""",543180,543180,"""E-waste accepted: ICT equipment, Batteries and Lamps only""","""https://alba-ewaste.sg""",1.389491502,103.9096604
136,"""RIVERVALE COURT RC""","""1. Permanent E-bin""","""110 RIVERVALE WALK, RIVERVALE COURT RC, VOID DECK""",540110,540110,"""E-waste accepted: ICT equipment, Batteries and Lamps only""","""https://alba-ewaste.sg""",1.383492335,103.9003124
137,"""RIVERVALE PLAZA""","""1. Permanent E-bin""","""118 RIVERVALE DRIVE, RIVERVALE PLAZA, MAIN LOBBY""",540118,540118,"""E-waste accepted: ICT equipment, Batteries and Lamps only""","""https://alba-ewaste.sg""",1.385553097,103.9019607
138,"""RIVERVALE SPRING RC""","""1. Permanent E-bin""","""135 RIVERVALE STREET, RIVERVALE SPRING RC, #01-730, VOID DECK""",540135,540135,"""E-waste accepted: ICT equipment, Batteries and Lamps only""","""https://alba-ewaste.sg""",1.388141051,103.905022
139,"""RIVERVALE VISTA RC""","""1. Permanent E-bin""","""188B RIVERVALE DRIVE, RIVERVALE VISTA RC, 01-1076, VOID DECK""",542188,542188,"""E-waste accepted: ICT equipment, Batteries and Lamps only""","""https://alba-ewaste.sg""",1.394540687,103.905459
140,"""SEMBAWANG MART""","""1. Permanent E-bin""","""511 CANBERRA ROAD, SEMBAWANG MART, MAIN LOBBY""",750511,750511,"""E-waste accepted: ICT equipment, Batteries and Lamps only""","""https://alba-ewaste.sg""",1.45384519,103.8195433
141,"""SERANGOON CC""","""1. Permanent E-bin""","""10 SERANGOON NORTH AVENUE 2, ATM LOBBY AREA""",555877,555877,"""E-waste accepted: ICT equipment, Batteries and Lamps only""","""https://alba-ewaste.sg""",1.370054869,103.8739276
142,"""SIGLAP EAST RC""","""1. Permanent E-bin""","""167 BEDOK SOUTH AVE 3, #01-501""",460167,460167,"""E-waste accepted: ICT equipment, Batteries and Lamps only""","""https://alba-ewaste.sg""",1.319639686,103.9449652
143,"""SIGLAP LUCKY VALLEY RC""","""1. Permanent E-bin""","""71 BEDOK SOUTH ROAD, #01-250""",460071,460071,"""E-waste accepted: ICT equipment, Batteries and Lamps only""","""https://alba-ewaste.sg""",1.320416017,103.9427323
144,"""SIM LIM SQUARE""","""1. Permanent E-bin""","""1 ROCHOR CANAL RD, SIM LIM SQUARE, LOADING BAY""",188504,188504,"""E-waste accepted: ICT equipment, Batteries and Lamps only""","""https://alba-ewaste.sg""",1.302906588,103.8530319
146,"""SIT @ DOVER""","""1. Permanent E-bin""","""10 DOVER DRIVE, SIT @ DOVER, MAIN LOBBY""",138683,138683,"""E-waste accepted: ICT equipment, Batteries and Lamps only""","""https://alba-ewaste.sg""",1.301008738,103.7801253
147,"""STAGMONT VIEW RC""","""1. Permanent E-bin""","""753 CHOA CHU KANG NORTH 5""",680753,680753,"""E-waste accepted: ICT equipment, Batteries and Lamps only""","""https://alba-ewaste.sg""",1.392340906,103.7469436
148,"""SUNSHINE PLACE @ 475 CHOA CHU KANG AVENUE 3""","""1. Permanent E-bin""","""475 CHOA CHU KANG AVENUE 3, WALKWAY CORRIDOR""",680475,680475,"""E-waste accepted: ICT equipment, Batteries and Lamps only""","""https://alba-ewaste.sg""",1.377897277,103.7390155
149,"""TAMAN JURONG SHOPPING CENTRE""","""1. Permanent E-bin""","""399 YUNG SHENG ROAD, TAMAN JURONG SHOPPING CENTRE, COMMON CORRIDOR""",610399,610399,"""E-waste accepted: ICT equipment, Batteries and Lamps only""","""https://alba-ewaste.sg""",1.334844875,103.720462
150,"""TAMPINES CHANGKAT CC""","""1. Permanent E-bin""","""13 TAMPINES STREET 11, MAIN ENTRANCE""",529453,529453,"""E-waste accepted: ICT equipment, Batteries and Lamps only""","""https://alba-ewaste.sg""",1.34581335,103.9476878
151,"""TAMPINES CHANGKAT ZONE 4 RN""","""1. Permanent E-bin""","""285 TAMPINES STREET 22, TAMPINES CHANGKAT ZONE 4 RC, VOID DECK""",520285,520285,"""E-waste accepted: ICT equipment, Batteries and Lamps only""","""https://alba-ewaste.sg""",1.350010742,103.9528161
152,"""TAMPINES CHANGKAT ZONE 5 RN""","""1. Permanent E-bin""","""124 TAMPINES STREET 11, TAMPINES CHANGKAT ZONE 5 RC, VOID DECK""",521124,521124,"""E-waste accepted: ICT equipment, Batteries and Lamps only""","""https://alba-ewaste.sg""",1.345184289,103.9497933
153,"""TAMPINES CHANGKAT ZONE 8 RN""","""1. Permanent E-bin""","""364 TAMPINES STREET 34, TAMPINES CHANGKAT ZONE 8 RC, VOID DECK""",520364,520364,"""E-waste accepted: ICT equipment, Batteries and Lamps only""","""https://alba-ewaste.sg""",1.35693801,103.9598735
154,"""TAMPINES COURTVIEW RC""","""1. Permanent E-bin""","""730 TAMPINES STREET 71, TAMPINES COURTVIEW RC, VOID DECK""",520730,520730,"""E-waste accepted: ICT equipment, Batteries and Lamps only""","""https://alba-ewaste.sg""",1.356706065,103.9334992
155,"""TAMPINES EAST ZONE 3 RN""","""1. Permanent E-bin""","""232 TAMPINES STREET 21, #01-639, VOID DECK""",521232,521232,"""E-waste accepted: ICT equipment, Batteries and Lamps only""","""https://alba-ewaste.sg""",1.356410193,103.9487017
156,"""TAMPINES GREENVALE RC""","""1. Permanent E-bin""","""736 TAMPINES STREET 72, TAMPINES GREENVALE RC, VOID DECK""",520736,520736,"""E-waste accepted: ICT equipment, Batteries and Lamps only""","""https://alba-ewaste.sg""",1.359041598,103.9343834
157,"""TAMPINES NORTH ZONE 3 RC""","""1. Permanent E-bin""","""430 TAMPINES STREET 41, TAMPINES NORTH ZONE 3 RC, VOID DECK""",520430,520430,"""E-waste accepted: ICT equipment, Batteries and Lamps only""","""https://alba-ewaste.sg""",1.359552581,103.9501482
158,"""TAMPINES SPRING RN""","""1. Permanent E-bin""","""880 TAMPINES AVENUE 8, TAMPINES SPRING RN, VOID DECK""",520880,520880,"""E-waste accepted: ICT equipment, Batteries and Lamps only""","""https://alba-ewaste.sg""",1.351326082,103.9314788
159,"""TAMPINES VILLE RN""","""1. Permanent E-bin""","""842 TAMPINES STREET 82, TAMPINES VILLE RN, VOID DECK""",520842,520842,"""E-waste accepted: ICT equipment, Batteries and Lamps only""","""https://alba-ewaste.sg""",1.351738509,103.9359524
161,"""TECK GHEE CC""","""1. Permanent E-bin""","""861 ANG MO KIO AVENUE 10, REAR ENTRANCE""",569734,569734,"""E-waste accepted: ICT equipment, Batteries and Lamps only""","""https://alba-ewaste.sg""",1.363106005,103.8535605
162,"""TELOK BLANGAH CC""","""1. Permanent E-bin""","""450 TELOK BLANGAH STREET 31, TELOK BLANGAH CC, RECEPTION AREA""",108943,108943,"""E-waste accepted: ICT equipment, Batteries and Lamps only""","""https://alba-ewaste.sg""",1.274862657,103.8078754
163,"""TEMASEK POLYTECHNIC""","""1. Permanent E-bin""","""21 TAMPINES AVENUE 1, TEMASEK POLYTECHNIC, MAIN ENTRANCE FOYER""",529757,529757,"""E-waste accepted: ICT equipment, Batteries and Lamps only""","""https://alba-ewaste.sg""",1.34594607,103.9326315
164,"""THE CATHAY""","""1. Permanent E-bin""","""2 HANDY RD, THE CATHAY, LOADING BAY""",229233,229233,"""E-waste accepted: ICT equipment, Batteries and Lamps only""","""https://alba-ewaste.sg""",1.299183738,103.8477898
165,"""THE CENTREPOINT""","""1. Permanent E-bin""","""176 ORCHARD ROAD, LEVEL 3""",238843,238843,"""E-waste accepted: ICT equipment, Batteries and Lamps only""","""https://alba-ewaste.sg""",1.301514467,103.8400544
166,"""THE GRANDSTAND (TURF CITY)""","""1. Permanent E-bin""","""200 TURF CLUB ROAD DBS THE GRANDSTAND, THE GRANDSTAND (TURF CITY), MAIN LOBBY CONCEIRGE""",287994,287994,"""E-waste accepted: ICT equipment, Batteries and Lamps only""","""https://alba-ewaste.sg""",1.337593733,103.7937074
167,"""THE REGENCY HOUSE - ALFA TECH""","""1. Permanent E-bin""","""123 PENANG ROAD, THE REGENCY HOUSE, LEVEL 1""",238465,238465,"""E-waste accepted: ICT equipment, Batteries and Lamps only""","""https://alba-ewaste.sg""",1.299466435,103.8420472
169,"""THOMSON PLAZA""","""1. Permanent E-bin""","""301 UPPER THOMSON ROAD, THOMSON PLAZA, MAIN ENTRANCE""",574408,574408,"""E-waste accepted: ICT equipment, Batteries and Lamps only""","""https://alba-ewaste.sg""",1.354794362,103.8309249
170,"""TOA PAYOH CENTRAL CC""","""1. Permanent E-bin""","""93 TOA PAYOH CENTRAL, MAIN ENTRANCE""",319194,319194,"""E-waste accepted: ICT equipment, Batteries and Lamps only""","""https://alba-ewaste.sg""",1.334655721,103.8504439
171,"""TOA PAYOH EAST CC""","""1. Permanent E-bin""","""160 LORONG 6 TOA PAYOH, MAIN ENTRANCE""",319380,319380,"""E-waste accepted: ICT equipment, Batteries and Lamps only""","""https://alba-ewaste.sg""",1.336315365,103.8548484
172,"""TOA PAYOH SOUTH CC""","""1. Permanent E-bin""","""1999 LORONG 8 TOA PAYOH, MAIN ENTRANCE""",319258,319258,"""E-waste accepted: ICT equipment, Batteries and Lamps only""","""https://alba-ewaste.sg""",1.334890375,103.859379
173,"""TOA PAYOH VIEW RC""","""1. Permanent E-bin""","""122 LORONG 2 TOA PAYOH VIEW RC, READING CORNER""",310122,310122,"""E-waste accepted: ICT equipment, Batteries and Lamps only""","""https://alba-ewaste.sg""",1.33980524,103.8462812
174,"""TOA PAYOH WEST CC""","""1. Permanent E-bin""","""200 LORONG 2 TOA PAYOH, SIDE OF BUILDING""",319642,319642,"""E-waste accepted: ICT equipment, Batteries and Lamps only""","""https://alba-ewaste.sg""",1.33522125,103.8451058
175,"""ULU PANDAN CC""","""1. Permanent E-bin""","""170 GHIM MOH ROAD, CORRIDOR WALKWAY""",279621,279621,"""E-waste accepted: ICT equipment, Batteries and Lamps only""","""https://alba-ewaste.sg""",1.31205215,103.789581
176,"""UTOWN - STEPHEN RIADY CENTRE""","""1. Permanent E-bin""","""2 COLLEGE AVE WEST, UTOWN - STEPHEN RIADY CENTRE, LEVEL 1 IN FRONT OF WAACOW RESTAURANT""",138607,138607,"""E-waste accepted: ICT equipment, Batteries and Lamps only""","""https://alba-ewaste.sg""",1.304794833,103.7724616
177,"""VALLEY POINT""","""1. Permanent E-bin""","""491 RIVER VALLEY ROAD, VALLEY POINT, #03-01""",248371,248371,"""E-waste accepted: ICT equipment, Batteries and Lamps only""","""https://alba-ewaste.sg""",1.293099172,103.8270462
178,"""VISTA POINT""","""1. Permanent E-bin""","""548 WOODLANDS DRIVE 44, LEVEL 1""",730548,730548,"""E-waste accepted: ICT equipment, Batteries and Lamps only""","""https://alba-ewaste.sg""",1.430999316,103.7941016
179,"""WEST COAST CC""","""1. Permanent E-bin""","""2 CLEMENTI WEST STREET 2, WALKWAY CORRIDOR""",129605,129605,"""E-waste accepted: ICT equipment, Batteries and Lamps only""","""https://alba-ewaste.sg""",1.302855327,103.7650076
180,"""WESTWOOD PRIMARY SCHOOL""","""1. Permanent E-bin""","""1 JURONG WEST ST 71, SECURITY GUARD POST""",642648,642648,"""E-waste accepted: ICT equipment, Batteries and Lamps only""","""https://alba-ewaste.sg""",1.338387692,103.6981926
181,"""WHAMPOA CC""","""1. Permanent E-bin""","""300 WHAMPOA DRIVE, BESIDE CONSTITUENCY OFFICE""",327737,327737,"""E-waste accepted: ICT equipment, Batteries and Lamps only""","""https://alba-ewaste.sg""",1.324701288,103.8571053
182,"""WISMA GEYLANG SERAI CC""","""1. Permanent E-bin""","""1 ENGKU AMAN TURN, CC OFFICE ENTRANCE""",408528,408528,"""E-waste accepted: ICT equipment, Batteries and Lamps only""","""https://alba-ewaste.sg""",1.316494434,103.8969417
183,"""WISTERIA MALL""","""1. Permanent E-bin""","""598 YISHUN RING RD, WISTERIA MALL, BASEMENT 1 CARGO LIFT LOBBY""",768698,768698,"""E-waste accepted: ICT equipment, Batteries and Lamps only""","""https://alba-ewaste.sg""",1.417989691,103.8413173
184,"""WOODGROVE CC""","""1. Permanent E-bin""","""353 WOODLANDS AVENUE 1, WOODGROVE CC, VOID DECK""",730353,730353,"""E-waste accepted: ICT equipment, Batteries and Lamps only""","""https://alba-ewaste.sg""",1.431816487,103.7851624
185,"""WOODLANDS CC""","""1. Permanent E-bin""","""1 WOODLANDS STREET 81, WOODLANDS CC, MAIN ENTRANCE LOBBY""",738526,738526,"""E-waste accepted: ICT equipment, Batteries and Lamps only""","""https://alba-ewaste.sg""",1.439815124,103.7882442
186,"""WOODLANDS GALAXY CC""","""1. Permanent E-bin""","""31 WOODLANDS AVENUE 6, WOODLANDS GALAXY CC, CC OFFICE ENTRANCE""",738991,738991,"""E-waste accepted: ICT equipment, Batteries and Lamps only""","""https://alba-ewaste.sg""",1.439008031,103.8026576
187,"""WOODLANDS MART""","""1. Permanent E-bin""","""768 WOODLANDS AVENUE 6, WOODLANDS MART, MAIN LOBBY""",730768,730768,"""E-waste accepted: ICT equipment, Batteries and Lamps only""","""https://alba-ewaste.sg""",1.445750777,103.7981198
188,"""WOODLANDS PARK NC""","""1. Permanent E-bin""","""18 JALAN RASOK""",739633,739633,"""E-waste accepted: ICT equipment, Batteries and Lamps only""","""https://alba-ewaste.sg""",1.416158187,103.7587161
189,"""WOODLANDS ZONE 2 RN""","""1. Permanent E-bin""","""846 WOODLANDS AVENUE 4, WOODLANDS ZONE 2 RN, VOID DECK""",730846,730846,"""E-waste accepted: ICT equipment, Batteries and Lamps only""","""https://alba-ewaste.sg""",1.443426738,103.7936128
190,"""WOODLANDS ZONE 3 RN""","""1. Permanent E-bin""","""876 WOODLANDS STREET 83, WOODLANDS ZONE 3 RN, VOID DECK""",730876,730876,"""E-waste accepted: ICT equipment, Batteries and Lamps only""","""https://alba-ewaste.sg""",1.444796301,103.7906028
191,"""WOODLANDS ZONE 4 RN""","""1. Permanent E-bin""","""862 WOODLANDS STREET 83, WOODLANDS ZONE 4 RN, #01-184, VOID DECK""",730862,730862,"""E-waste accepted: ICT equipment, Batteries and Lamps only""","""https://alba-ewaste.sg""",1.439955084,103.7950489
192,"""WOODLANDS ZONE 7 RN""","""1. Permanent E-bin""","""611 WOODLANDS RING ROAD, WOODLANDS ZONE 7 RN, VOID DECK""",730611,730611,"""E-waste accepted: ICT equipment, Batteries and Lamps only""","""https://alba-ewaste.sg""",1.435426092,103.7969988
193,"""WOODLANDS ZONE 8 RN""","""1. Permanent E-bin""","""638 WOODLANDS RING ROAD, WOODLANDS ZONE 8 RN, VOID DECK""",730638,730638,"""E-waste accepted: ICT equipment, Batteries and Lamps only""","""https://alba-ewaste.sg""",1.436717378,103.8031925
194,"""WOODLANDS ZONE 9 RN""","""1. Permanent E-bin""","""656 WOODLANDS RING ROAD, WOODLANDS ZONE 9 RN, VOID DECK""",730656,730656,"""E-waste accepted: ICT equipment, Batteries and Lamps only""","""https://alba-ewaste.sg""",1.436985964,103.7991179
195,"""YEW TEE CC""","""1. Permanent E-bin""","""20 CHOA CHU KANG STREET 52, YEW TEE CC, MAIN ATRIUM""",689286,689286,"""E-waste accepted: ICT equipment, Batteries and Lamps only""","""https://alba-ewaste.sg""",1.394805646,103.7449713
196,"""YEW TEE SQUARE""","""1. Permanent E-bin""","""624 CHOA CHU KANG STREET 62, YEW TEE SQUARE, REAR ENTRANCE""",680622,680622,"""E-waste accepted: ICT equipment, Batteries and Lamps only""","""https://alba-ewaste.sg""",1.398277196,103.7471825
197,"""YIO CHU KANG CC""","""1. Permanent E-bin""","""50 ANG MO KIO STREET 61, MAIN LOBBY""",569163,569163,"""E-waste accepted: ICT equipment, Batteries and Lamps only""","""https://alba-ewaste.sg""",1.381325786,103.8414505
198,"""YUHUA CC""","""1. Permanent E-bin""","""90 BOON LAY WAY, MAIN LOBBY""",609958,609958,"""E-waste accepted: ICT equipment, Batteries and Lamps only""","""https://alba-ewaste.sg""",1.33997286,103.7370659
199,"""YUSOF ISHAK INSTITUTE""","""1. Permanent E-bin""","""30 HENG MUI KENG TERRACE, LEVEL 1""",119614,119614,"""E-waste accepted: ICT equipment, Batteries and Lamps only""","""https://alba-ewaste.sg""",1.290661309,103.7769816
200,"""ZHONGSHAN MALL""","""1. Permanent E-bin""","""20 AH HOOD ROAD, ZHONGSHAN MALL""",329984,329984,"""E-waste accepted: ICT equipment, Batteries and Lamps only""","""https://alba-ewaste.sg""",1.327029916,103.8464909
201,"""COLD STORAGE @ APERIA""","""2. Retailer E-bin""","""12 KALLANG AVE, APERIA, #01-47""",339511,339511,"""E-waste accepted: Batteries and Lamps only""","""https://alba-ewaste.sg""",1.309711207,103.8643264
202,"""COLD STORAGE @ BUGIS JUNCTION""","""2. Retailer E-bin""","""230 VICTORIA STREET, BUGIS JUNCTION, #B1-17""",188021,188021,"""E-waste accepted: Batteries and Lamps only""","""https://alba-ewaste.sg""",1.299112875,103.8554112
203,"""COLD STORAGE @ CLUNY COURT""","""2. Retailer E-bin""","""501 BUKIT TIMAH ROAD, CLUNY COURT, #01-02""",259760,259760,"""E-waste accepted: Batteries and Lamps only""","""https://alba-ewaste.sg""",1.322573169,103.8142455
204,"""COLD STORAGE @ COMPASS ONE""","""2. Retailer E-bin""","""1 SENGKANG SQUARE, COMPASS ONE, #B1-25""",545078,545078,"""E-waste accepted: Batteries and Lamps only""","""https://alba-ewaste.sg""",1.392053142,103.8950705
205,"""COLD STORAGE @ GREAT WORLD CITY""","""2. Retailer E-bin""","""1 KIM SENG PROMENADE, GREAT WORLD CITY, #B1-18""",237994,237994,"""E-waste accepted: Batteries and Lamps only""","""https://alba-ewaste.sg""",1.293172204,103.8320953
206,"""COLD STORAGE @ GUTHRIE HOUSE""","""2. Retailer E-bin""","""1 FIFTH AVENUE, GUTHRIE HOUSE, #01-05""",268802,268802,"""E-waste accepted: Batteries and Lamps only""","""https://alba-ewaste.sg""",1.330817401,103.7956924
207,"""COLD STORAGE @ HILLVIEW MARKET PLACE""","""2. Retailer E-bin""","""4 HILLVIEW RISE, HILLVIEW MARKET PLACE, #02-07""",667979,667979,"""E-waste accepted: Batteries and Lamps only""","""https://alba-ewaste.sg""",1.362674508,103.7641729
208,"""COLD STORAGE @ JELITA SHOPPING CENTRE""","""2. Retailer E-bin""","""293 HOLLAND ROAD, JELITA SHOPPING CENTRE, #01-01""",278628,278628,"""E-waste accepted: Batteries and Lamps only""","""https://alba-ewaste.sg""",1.317545559,103.7858505
209,"""COLD STORAGE @ KALLANG LEISURE PARK""","""2. Retailer E-bin""","""5 STADIUM WALK, KALLANG LEISURE PARK, #B1-01""",397693,397693,"""E-waste accepted: Batteries and Lamps only""","""https://alba-ewaste.sg""",1.302221774,103.8761527
211,"""COLD STORAGE @ NOVENA SQUARE""","""2. Retailer E-bin""","""238 THOMSON ROAD, NOVENA SQUARE, #01-28""",307683,307683,"""E-waste accepted: Batteries and Lamps only""","""https://alba-ewaste.sg""",1.320211007,103.8436568
212,"""COLD STORAGE @ ONE NORTH""","""2. Retailer E-bin""","""1 FUSIONOPOLIS WAY, ONE NORTH, #B2-03""",138632,138632,"""E-waste accepted: Batteries and Lamps only""","""https://alba-ewaste.sg""",1.299510673,103.7875557
213,"""COLD STORAGE @ PARAGON""","""2. Retailer E-bin""","""290 ORCHARD ROAD, #B1-21""",238859,238859,"""E-waste accepted: Batteries and Lamps only""","""https://alba-ewaste.sg""",1.303723217,103.8352403
214,"""COLD STORAGE @ PARKWAY PARADE""","""2. Retailer E-bin""","""80 MARINE PARADE ROAD, #B1-84""",449269,449269,"""E-waste accepted: Batteries and Lamps only""","""https://alba-ewaste.sg""",1.30106068,103.9053395
215,"""COLD STORAGE @ PLAZA SINGAPURA""","""2. Retailer E-bin""","""68 ORCHARD ROAD, #B2-15""",238839,238839,"""E-waste accepted: Batteries and Lamps only""","""https://alba-ewaste.sg""",1.300820718,103.8450673
216,"""COLD STORAGE @ RAFFLES CITY SHOPPING CENTRE""","""2. Retailer E-bin""","""1 STAMFORD ROAD, RAFFLES CITY SHOPPING CENTRE, #B1-01""",179103,179103,"""E-waste accepted: Batteries and Lamps only""","""https://alba-ewaste.sg""",1.293760281,103.8527683
217,"""COLD STORAGE @ SIGLAP V""","""2. Retailer E-bin""","""2 FIRST STREET, #01-05""",458278,458278,"""E-waste accepted: Batteries and Lamps only""","""https://alba-ewaste.sg""",1.312753297,103.9236579
218,"""COLD STORAGE @ TANGLIN MALL""","""2. Retailer E-bin""","""163 TANGLIN ROAD, TANGLIN MALL, #B1-01""",247933,247933,"""E-waste accepted: Batteries and Lamps only""","""https://alba-ewaste.sg""",1.304853421,103.8238835
219,"""COLD STORAGE @ THE STAR VISTA""","""2. Retailer E-bin""","""1 VISTA EXCHANGE GREEN, THE STAR VISTA, #B1-02""",138617,138617,"""E-waste accepted: Batteries and Lamps only""","""https://alba-ewaste.sg""",1.306815007,103.7884627
220,"""COLD STORAGE @ UE SQUARE""","""2. Retailer E-bin""","""81 CLEMENCEAU AVENUE, UE SQUARE, #02-15""",239917,239917,"""E-waste accepted: Batteries and Lamps only""","""https://alba-ewaste.sg""",1.292259585,103.842561
221,"""COLD STORAGE @ UNITED SQUARE""","""2. Retailer E-bin""","""101 THOMSON ROAD, UNITED SQUARE, #B1-29""",307591,307591,"""E-waste accepted: Batteries and Lamps only""","""https://alba-ewaste.sg""",1.317334643,103.8434632
222,"""COLD STORAGE @ WEST COAST PLAZA""","""2. Retailer E-bin""","""154 WEST COAST ROAD, WEST COAST PLAZA, #B1-19""",127371,127371,"""E-waste accepted: Batteries and Lamps only""","""https://alba-ewaste.sg""",1.303586225,103.7661038
223,"""FAIRPRICE @ 10 BUKIT BATOK CENTRAL""","""2. Retailer E-bin""","""10 BUKIT BATOK CENTRAL, #01-08""",659958,659958,"""E-waste accepted: Batteries and Lamps only""","""https://alba-ewaste.sg""",1.349033312,103.7495665
225,"""FAIRPRICE @ 111 SOMERSET RD""","""2. Retailer E-bin""","""111 SOMERSET RD, #01-21 TO 30""",238164,238164,"""E-waste accepted: Batteries and Lamps only""","""https://alba-ewaste.sg""",1.300206257,103.8373171
226,"""FAIRPRICE @ 114 ALJUNIED AVE 2""","""2. Retailer E-bin""","""114 ALJUNIED AVE 2, #01-75""",380114,380114,"""E-waste accepted: Batteries and Lamps only""","""https://alba-ewaste.sg""",1.321724552,103.8868071
227,"""FAIRPRICE @ 135 JURONG GATEWAY RD""","""2. Retailer E-bin""","""135 JURONG GATEWAY RD, #01-337""",600135,600135,"""E-waste accepted: Batteries and Lamps only""","""https://alba-ewaste.sg""",1.333822942,103.739755
228,"""FAIRPRICE @ 140 TECK WHYE LANE""","""2. Retailer E-bin""","""140 TECK WHYE LANE, #01-351""",680140,680140,"""E-waste accepted: Batteries and Lamps only""","""https://alba-ewaste.sg""",1.380018058,103.7531484
229,"""FAIRPRICE @ 166 BUKIT MERAH CENTRAL""","""2. Retailer E-bin""","""166 BUKIT MERAH CENTRAL, #01-3531 & 02-3531""",150166,150166,"""E-waste accepted: Batteries and Lamps only""","""https://alba-ewaste.sg""",1.283092626,103.8176672
230,"""FAIRPRICE @ 18 TAI SENG ST MAPLE TREE""","""2. Retailer E-bin""","""18 TAI SENG ST MAPLE TREE 18, #B1-13""",539775,539775,"""E-waste accepted: Batteries and Lamps only""","""https://alba-ewaste.sg""",1.336315575,103.8888256
231,"""FAIRPRICE @ 192 TOA PAYOH LOR 4""","""2. Retailer E-bin""","""192 TOA PAYOH LOR 4, #01-670/672""",310192,310192,"""E-waste accepted: Batteries and Lamps only""","""https://alba-ewaste.sg""",1.331616833,103.8506237
232,"""FAIRPRICE @ 202 HOUGANG ST 21""","""2. Retailer E-bin""","""202 HOUGANG ST 21, #01-00""",530202,530202,"""E-waste accepted: Batteries and Lamps only""","""https://alba-ewaste.sg""",1.357527728,103.8840289
233,"""FAIRPRICE @ 212 BEDOK NTH ST""","""2. Retailer E-bin""","""212 BEDOK NTH ST 1, #01-147""",460212,460212,"""E-waste accepted: Batteries and Lamps only""","""https://alba-ewaste.sg""",1.325940692,103.93164
234,"""FAIRPRICE @ 28 DOVER CRESCENT""","""2. Retailer E-bin""","""28 DOVER CRESCENT,  28 DOVER CRESCENT, #01-83""",130028,130028,"""E-waste accepted: Batteries and Lamps only""","""https://alba-ewaste.sg""",1.304460927,103.7817797
235,"""FAIRPRICE @ 29B CHAI CHEE AVENUE""","""2. Retailer E-bin""","""29B CHAI CHEE AVENUE, #01-62""",462029,462029,"""E-waste accepted: Batteries and Lamps only""","""https://alba-ewaste.sg""",1.32406382,103.9239529
236,"""FAIRPRICE @ 345 JURONG EAST ST 31""","""2. Retailer E-bin""","""345 JURONG EAST ST 31, #01-29""",600345,600345,"""E-waste accepted: Batteries and Lamps only""","""https://alba-ewaste.sg""",1.345512106,103.7312191
237,"""FAIRPRICE @ 355 SEMBAWANG WAY""","""2. Retailer E-bin""","""355 SEMBAWANG WAY, #01-01""",750355,750355,"""E-waste accepted: Batteries and Lamps only""","""https://alba-ewaste.sg""",1.449544856,103.8187276
238,"""FAIRPRICE @ 36 HOLLAND DR""","""2. Retailer E-bin""","""36 HOLLAND DR, #01-03/04/05""",270036,270036,"""E-waste accepted: Batteries and Lamps only""","""https://alba-ewaste.sg""",1.309174198,103.7926926
239,"""FAIRPRICE @ 414 YISHUN RING RD""","""2. Retailer E-bin""","""414 YISHUN RING RD, #01-185""",760414,760414,"""E-waste accepted: Batteries and Lamps only""","""https://alba-ewaste.sg""",1.424528497,103.8465955
240,"""FAIRPRICE @ 451 AVE 3""","""2. Retailer E-bin""","""451 CLEMENTI AVE 3,  451 AVE 3, #01-307""",120451,120451,"""E-waste accepted: Batteries and Lamps only""","""https://alba-ewaste.sg""",1.312686368,103.7656232
241,"""FAIRPRICE @ 460 ALEXANDRA RD""","""2. Retailer E-bin""","""460 ALEXANDRA RD, 460 ALEXANDRA RD, #01-09 AND #01-16""",119963,119963,"""E-waste accepted: Batteries and Lamps only""","""https://alba-ewaste.sg""",1.273625583,103.8012223
242,"""FAIRPRICE @ 475 TAMPINES ST44""","""2. Retailer E-bin""","""475 TAMPINES ST 44, #01-145""",520475,520475,"""E-waste accepted: Batteries and Lamps only""","""https://alba-ewaste.sg""",1.360323319,103.9531296
244,"""FAIRPRICE @ 50 HAVELOCK RD""","""2. Retailer E-bin""","""50 HAVELOCK RD,  50 HAVELOCK RD, #01-755""",160050,160050,"""E-waste accepted: Batteries and Lamps only""","""https://alba-ewaste.sg""",1.289764755,103.8268029
245,"""FAIRPRICE @ 500 LOR 6 TOA PAYOH""","""2. Retailer E-bin""","""500 LOR 6 TOA PAYOH, #B1-32/#01-33""",310500,310500,"""E-waste accepted: Batteries and Lamps only""","""https://alba-ewaste.sg""",1.332855429,103.8470923
246,"""FAIRPRICE @ 502 WEST COAST DR""","""2. Retailer E-bin""","""502 WEST COAST DR,  502 WEST COAST DR, #01-41""",120502,120502,"""E-waste accepted: Batteries and Lamps only""","""https://alba-ewaste.sg""",1.311906957,103.759128
247,"""FAIRPRICE @ 51 UPPER SERANGOON RD""","""2. Retailer E-bin""","""51 UPPER SERANGOON RD, THE POIZ CENTRE, #01-30 TO 32, 41 TO 49""",347697,347697,"""E-waste accepted: Batteries and Lamps only""","""https://alba-ewaste.sg""",1.331355508,103.8681501
248,"""FAIRPRICE @ 510 BISHAN ST 13""","""2. Retailer E-bin""","""510 BISHAN ST 13, #01-520""",570510,570510,"""E-waste accepted: Batteries and Lamps only""","""https://alba-ewaste.sg""",1.348888439,103.849692
249,"""FAIRPRICE @ 511 CANBERRA RD""","""2. Retailer E-bin""","""511 CANBERRA RD, #02-03""",750511,750511,"""E-waste accepted: Batteries and Lamps only""","""https://alba-ewaste.sg""",1.45384519,103.8195433
250,"""FAIRPRICE @ 6 MARINE PARADE CENTRAL""","""2. Retailer E-bin""","""6 MARINE PARADE CENTRAL""",449411,449411,"""E-waste accepted: Batteries and Lamps only""","""https://alba-ewaste.sg""",1.301347148,103.9071836
251,"""FAIRPRICE @ 612/620 GEYLANG LOR 38""","""2. Retailer E-bin""","""612/620 GEYLANG LOR 38""",389551,389551,"""E-waste accepted: Batteries and Lamps only""","""https://alba-ewaste.sg""",1.314150013,103.8885449
252,"""FAIRPRICE @ 66 YUNG KANG RD""","""2. Retailer E-bin""","""63/66 YUNG KUANG RD,  66 YUNG KANG RD, #01-119 AND #02-119""",610063,610063,"""E-waste accepted: Batteries and Lamps only""","""https://alba-ewaste.sg""",1.332059386,103.7224529
253,"""FAIRPRICE @ 71 KALLANG BAHRU""","""2. Retailer E-bin""","""71 KALLANG BAHRU, #01-529/#02-531""",330071,330071,"""E-waste accepted: Batteries and Lamps only""","""https://alba-ewaste.sg""",1.320992942,103.87039
254,"""FAIRPRICE @ 712 ANG MO KIO""","""2. Retailer E-bin""","""712 ANG MO KIO AVE 6,  712 ANG MO KIO, #01-4056""",560712,560712,"""E-waste accepted: Batteries and Lamps only""","""https://alba-ewaste.sg""",1.371410968,103.8470845
255,"""FAIRPRICE @ 80 LORONG LIMAU""","""2. Retailer E-bin""","""80 LORONG LIMAU, #01-19""",320080,320080,"""E-waste accepted: Batteries and Lamps only""","""https://alba-ewaste.sg""",1.323796071,103.8556706
256,"""FAIRPRICE @ 808 FRENCH RD""","""2. Retailer E-bin""","""808 FRENCH RD #01-01, #01-01""",200808,200808,"""E-waste accepted: Batteries and Lamps only""","""https://alba-ewaste.sg""",1.308782165,103.8613785
257,"""FAIRPRICE @ 849 YISHUN RING RD""","""2. Retailer E-bin""","""849 YISHUN RING RD, #01-370""",760849,760849,"""E-waste accepted: Batteries and Lamps only""","""https://alba-ewaste.sg""",1.416959243,103.8353519
258,"""FAIRPRICE @ 866A TAMPINES ST 83""","""2. Retailer E-bin""","""866A TAMPINES ST 83, #01-01""",521866,521866,"""E-waste accepted: Batteries and Lamps only""","""https://alba-ewaste.sg""",1.355393063,103.9344293
259,"""FAIRPRICE @ 888 WOODLANDS DR 50""","""2. Retailer E-bin""","""888 WOODLANDS DR 50, #01-757""",730888,730888,"""E-waste accepted: Batteries and Lamps only""","""https://alba-ewaste.sg""",1.437118561,103.7953161
260,"""FAIRPRICE @ BEDOK MALL""","""2. Retailer E-bin""","""311 NEW UPPER CHANGI RD, BEDOK MALL, #B2-60""",467360,467360,"""E-waste accepted: Batteries and Lamps only""","""https://alba-ewaste.sg""",1.324750542,103.9291892
261,"""FAIRPRICE @ BOON LAY SHOPPING CENTRE""","""2. Retailer E-bin""","""221 BOON LAY PLACE, BOON LAY SHOPPING CENTRE, #02-200""",640221,640221,"""E-waste accepted: Batteries and Lamps only""","""https://alba-ewaste.sg""",1.346373764,103.7124728
262,"""FAIRPRICE @ BUKIT PANJANG PLAZA""","""2. Retailer E-bin""","""1 JELEBU RD, BUKIT PANJANG PLAZA, #01-15 & #02-20""",677743,677743,"""E-waste accepted: Batteries and Lamps only""","""https://alba-ewaste.sg""",1.380522395,103.7640514
263,"""FAIRPRICE @ BUKIT TIMAH PLAZA""","""2. Retailer E-bin""","""1 JLN ANAK BUKIT, BUKIT TIMAH PLAZA, #B1-01 & #B2-01""",588996,588996,"""E-waste accepted: Batteries and Lamps only""","""https://alba-ewaste.sg""",1.338631653,103.7785854
264,"""FAIRPRICE @ CANBERRA PLAZA""","""2. Retailer E-bin""","""133 CANBERRA VIEW, CANBERRA PLAZA, #B1-03/04""",750133,750133,"""E-waste accepted: Batteries and Lamps only""","""https://alba-ewaste.sg""",1.443495445,103.8303454
265,"""FAIRPRICE @ CHANGI CITY POINT""","""2. Retailer E-bin""","""5 CHANGI BUSINESS PARK CENTRAL 1, CHANGI CITY POINT, #B1-09/10/11""",486038,486038,"""E-waste accepted: Batteries and Lamps only""","""https://alba-ewaste.sg""",1.334083638,103.962946
267,"""FAIRPRICE @ CITY SQUARE MALL""","""2. Retailer E-bin""","""180 KITCHENER RD, CITY SQUARE MALL, #B1-09/10""",208539,208539,"""E-waste accepted: Batteries and Lamps only""","""https://alba-ewaste.sg""",1.311305171,103.8564218
268,"""FAIRPRICE @ COMPASSVALE LINK""","""2. Retailer E-bin""","""277C COMPASSVALE LINK, #01-13""",544277,544277,"""E-waste accepted: Batteries and Lamps only""","""https://alba-ewaste.sg""",1.381833459,103.8939094
269,"""FAIRPRICE @ DAWSON PLACE""","""2. Retailer E-bin""","""57 DAWSON RD, DAWSON PLACE, #01-07""",142057,142057,"""E-waste accepted: Batteries and Lamps only""","""https://alba-ewaste.sg""",1.292703399,103.810959
270,"""FAIRPRICE @ DEPOT HEIGHTS SHOPPING CENTRE""","""2. Retailer E-bin""","""108 DEPOT RD, DEPOT HEIGHTS SHOPPING CENTRE, #01-01""",100108,100108,"""E-waste accepted: Batteries and Lamps only""","""https://alba-ewaste.sg""",1.280966807,103.8102982
271,"""FAIRPRICE @ EASTPOINT""","""2. Retailer E-bin""","""3 SIMEI ST 6, EASTPOINT, #05-01""",528833,528833,"""E-waste accepted: Batteries and Lamps only""","""https://alba-ewaste.sg""",1.342691998,103.9530508
272,"""FAIRPRICE @ HILLION MALL""","""2. Retailer E-bin""","""17 PETIR RD, HILLION MALL, #B2-67""",678278,678278,"""E-waste accepted: Batteries and Lamps only""","""https://alba-ewaste.sg""",1.378411651,103.7638295
273,"""FAIRPRICE @ HOMETEAM NS BUKIT BATOK CLUBHOUSE""","""2. Retailer E-bin""","""2 BUKIT BATOK WEST AVE 7, HOMETEAM NS BUKIT BATOK CLUBHOUSE, #01-10""",659003,659003,"""E-waste accepted: Batteries and Lamps only""","""https://alba-ewaste.sg""",1.365773912,103.7485209
274,"""FAIRPRICE @ HOUGANG MALL""","""2. Retailer E-bin""","""90 HOUGANG AVE 10, HOUGANG MALL, #B1-07""",538766,538766,"""E-waste accepted: Batteries and Lamps only""","""https://alba-ewaste.sg""",1.372483087,103.8937881
275,"""FAIRPRICE @ JOO CHIAT COMPLEX""","""2. Retailer E-bin""","""2 JOO CHIAT RD, JOO CHIAT COMPLEX, #01-1139 / #02-1139""",420002,420002,"""E-waste accepted: Batteries and Lamps only""","""https://alba-ewaste.sg""",1.315539644,103.8987649
276,"""FAIRPRICE @ JUNCTION 8 SHOPPING CENTRE""","""2. Retailer E-bin""","""9 BISHAN PLACE, JUNCTION 8 SHOPPING CENTRE, #B1-01""",579837,579837,"""E-waste accepted: Batteries and Lamps only""","""https://alba-ewaste.sg""",1.350422157,103.8488262
277,"""FAIRPRICE @ JURONG POINT 1""","""2. Retailer E-bin""","""1 JURONG WEST CENTRAL 2, JURONG POINT 1, #B1-09""",648886,648886,"""E-waste accepted: Batteries and Lamps only""","""https://alba-ewaste.sg""",1.339452004,103.706685
278,"""FAIRPRICE @ KAMPUND ADMIRALTY""","""2. Retailer E-bin""","""676 WOODLANDS DR 71, KAMPUND ADMIRALTY, #B1-02""",730676,730676,"""E-waste accepted: Batteries and Lamps only""","""https://alba-ewaste.sg""",1.439862176,103.8007268
279,"""FAIRPRICE @ KANG KAR MALL""","""2. Retailer E-bin""","""100 HOUGANG AVE 10, KANG KAR MALL, #01-01/#02-01""",538767,538767,"""E-waste accepted: Batteries and Lamps only""","""https://alba-ewaste.sg""",1.371779961,103.8941654
280,"""FAIRPRICE @ LIMBANG SHOPPING CENTRE""","""2. Retailer E-bin""","""533 CHOA CHUA KANG ST 51, LIMBANG SHOPPING CENTRE, #01-11""",680533,680533,"""E-waste accepted: Batteries and Lamps only""","""https://alba-ewaste.sg""",1.392073887,103.7430996
281,"""FAIRPRICE @ LOT 1 SHOPPERS' MALL""","""2. Retailer E-bin""","""21 CHOA CHU KANG AVE 4, LOT 1 SHOPPERS' MALL, #B1-03""",689812,689812,"""E-waste accepted: Batteries and Lamps only""","""https://alba-ewaste.sg""",1.385068365,103.7449504
282,"""FAIRPRICE @ MARSILING MRT""","""2. Retailer E-bin""","""71 WOODLANDS AVE 3, MARSLING MRT, #01-01""",739044,739044,"""E-waste accepted: Batteries and Lamps only""","""https://alba-ewaste.sg""",1.432521149,103.7740746
283,"""FAIRPRICE @ NORTHPOINT CITY""","""2. Retailer E-bin""","""1 NORTHPOINT DRIVE, NORTHPOINT CITY, #B2-103 TO 107""",768019,768019,"""E-waste accepted: Batteries and Lamps only""","""https://alba-ewaste.sg""",1.428754606,103.8363245
284,"""FAIRPRICE @ NUH MEDICAL CENTRE""","""2. Retailer E-bin""","""1 LOWER KENT RIDGE RD, NUH MEDICAL CENTRE, #02-16""",119082,119082,"""E-waste accepted: Batteries and Lamps only""","""https://alba-ewaste.sg""",1.293512877,103.7846856
285,"""FAIRPRICE @ OASIS TERRACES""","""2. Retailer E-bin""","""681 PUNGGOL DR, OASIS TERRACES, #B1-01""",820681,820681,"""E-waste accepted: Batteries and Lamps only""","""https://alba-ewaste.sg""",1.402780157,103.9132151
286,"""FAIRPRICE @ ORCHARD GRAND COURT""","""2. Retailer E-bin""","""131 KILLINEY RD, ORCHARD GRAND COURT, #01-01/02/03""",239571,239571,"""E-waste accepted: Batteries and Lamps only""","""https://alba-ewaste.sg""",1.297275314,103.8385339
287,"""FAIRPRICE @ OUR TAMPINES HUB""","""2. Retailer E-bin""","""1 TAMPINES WALK, OUR TAMPINES HUB, #B1-01""",528523,528523,"""E-waste accepted: Batteries and Lamps only""","""https://alba-ewaste.sg""",1.353300307,103.9405254
288,"""FAIRPRICE @ PASIR RIS WEST PLAZA""","""2. Retailer E-bin""","""734 PASIR RIS ST 72, PASIR RIS WEST PLAZA, #01-37""",510734,510734,"""E-waste accepted: Batteries and Lamps only""","""https://alba-ewaste.sg""",1.379698021,103.9362708
289,"""FAIRPRICE @ PAYA LEBAR QUARTER""","""2. Retailer E-bin""","""10 PAYA LEBAR RD, PAYA LEBAR QUARTER, #B2-09""",409057,409057,"""E-waste accepted: Batteries and Lamps only""","""https://alba-ewaste.sg""",1.317561159,103.8928367
290,"""FAIRPRICE @ PUNGGOL PLAZA""","""2. Retailer E-bin""","""168 PUNGGOL FIELD RD, PUNGGOL PLAZA, #03-01/02""",820168,820168,"""E-waste accepted: Batteries and Lamps only""","""https://alba-ewaste.sg""",1.394174473,103.91312
291,"""FAIRPRICE @ RIVERVALE MALL""","""2. Retailer E-bin""","""11 RIVERVALE CRESCENT, RIVERVALE MALL, #03-01""",545082,545082,"""E-waste accepted: Batteries and Lamps only""","""https://alba-ewaste.sg""",1.392217327,103.9044731
292,"""FAIRPRICE @ RIVERVALE PLAZA""","""2. Retailer E-bin""","""118 RIVERVALE DR, RIVERVALE PLAZA, #01-08""",540118,540118,"""E-waste accepted: Batteries and Lamps only""","""https://alba-ewaste.sg""",1.385553097,103.9019607
293,"""FAIRPRICE @ SCOTTS SQUARE""","""2. Retailer E-bin""","""6 SCOTTS RD, SCOTTS SQUARE, #B1-03 TO 07 AND #B1-10""",228209,228209,"""E-waste accepted: Batteries and Lamps only""","""https://alba-ewaste.sg""",1.305855826,103.8329844
294,"""FAIRPRICE @ SELETAR MALL""","""2. Retailer E-bin""","""33 SENGKANG WEST AVE, SELETAR MALL, #B2-24""",797653,797653,"""E-waste accepted: Batteries and Lamps only""","""https://alba-ewaste.sg""",1.391315491,103.8762132
295,"""FAIRPRICE @ SENJA GRAND""","""2. Retailer E-bin""","""628 SENJA RD, SENJA GRAND, #01-01""",670628,670628,"""E-waste accepted: Batteries and Lamps only""","""https://alba-ewaste.sg""",1.385096025,103.7602184
296,"""FAIRPRICE @ SERANGOON GARDEN VILLAGE""","""2. Retailer E-bin""","""1 MAJU AVE, SERANGOON GARDEN VILLAGE, #B1-11""",556679,556679,"""E-waste accepted: Batteries and Lamps only""","""https://alba-ewaste.sg""",1.365280606,103.8651012
297,"""FAIRPRICE @ SINGPOST CENTRE""","""2. Retailer E-bin""","""10 EUNOS RD 8, SINGPOST CENTRE #B1-101 TO 107""",408600,408600,"""E-waste accepted: Batteries and Lamps only""","""https://alba-ewaste.sg""",1.318931326,103.8944829
298,"""FAIRPRICE @ SQUARE 2""","""2. Retailer E-bin""","""10 SINARAN DR, SQUARE 2, #04-46/47/48/49""",307506,307506,"""E-waste accepted: Batteries and Lamps only""","""https://alba-ewaste.sg""",1.320441031,103.8441926
299,"""FAIRPRICE @ SUN PLAZA""","""2. Retailer E-bin""","""30 SEMBAWANG DRIVE, SUN PLAZA, #B1-01/02""",757713,757713,"""E-waste accepted: Batteries and Lamps only""","""https://alba-ewaste.sg""",1.448200366,103.8195301
300,"""FAIRPRICE @ TAMAN JURONG SHOPPING CENTRE""","""2. Retailer E-bin""","""399 YUNG SHENG RD, TAMAN JURONG SHOPPING CENTRE, #01-35""",610399,610399,"""E-waste accepted: Batteries and Lamps only""","""https://alba-ewaste.sg""",1.334844875,103.720462
301,"""FAIRPRICE @ TAMPINES MALL""","""2. Retailer E-bin""","""4 TAMPINES CENTRAL 5, TAMPINES MALL, #B1-12""",529510,529510,"""E-waste accepted: Batteries and Lamps only""","""https://alba-ewaste.sg""",1.352504683,103.9446826
303,"""FAIRPRICE @ THE CLEMENTI MALL""","""2. Retailer E-bin""","""3155 COMMONWEALTH AVENUE WEST, THE CLEMENTI MALL, #B1-12""",129588,129588,"""E-waste accepted: Batteries and Lamps only""","""https://alba-ewaste.sg""",1.315495939,103.7645838
304,"""FAIRPRICE @ THOMSON PLAZA""","""2. Retailer E-bin""","""301 UPPER THOMSON RD, THOMSON PLAZA, #03-37/38""",574408,574408,"""E-waste accepted: Batteries and Lamps only""","""https://alba-ewaste.sg""",1.354794362,103.8309249
305,"""FAIRPRICE @ WHITE SANDS""","""2. Retailer E-bin""","""1 PASIR RIS CENTRAL ST 3, WHITE SANDS, #B1-10""",518457,518457,"""E-waste accepted: Batteries and Lamps only""","""https://alba-ewaste.sg""",1.372287616,103.9497339
306,"""FAIRPRICE @ WISTERIA MALL""","""2. Retailer E-bin""","""598 YISHUN RING RD, WISTERIA MALL, #01-01""",768698,768698,"""E-waste accepted: Batteries and Lamps only""","""https://alba-ewaste.sg""",1.417989691,103.8413173
307,"""FAIRPRICE @ WOODLANDS CIVIC CENTRE""","""2. Retailer E-bin""","""900 SOUTH WOODLANDS DRIVE, WOODLANDS CIVIC CENTRE, #B1-01""",730900,730900,"""E-waste accepted: Batteries and Lamps only""","""https://alba-ewaste.sg""",1.434990016,103.7869821
308,"""FAIRPRICE @ YEW TEE MRT STATION""","""2. Retailer E-bin""","""61 CHOA CHU KANG DR, YEW TEE MRT STATION, #01-01""",689715,689715,"""E-waste accepted: Batteries and Lamps only""","""https://alba-ewaste.sg""",1.397535069,103.7474052
309,"""FAIRPRICE @ YEW TEE POINT""","""2. Retailer E-bin""","""21 CHOA CHU KANG NORTH 6, YEW TEE POINT, #B1-01""",689578,689578,"""E-waste accepted: Batteries and Lamps only""","""https://alba-ewaste.sg""",1.397084324,103.746598
310,"""FAIRPRICE @ YISHUN MRT""","""2. Retailer E-bin""","""301 YISHUN AVE 2, YISHUN MRT STATION, #01-02""",769093,769093,"""E-waste accepted: Batteries and Lamps only""","""https://alba-ewaste.sg""",1.429443085,103.835005
311,"""FAIRPRICE @ ZHONG SHAN PARK""","""2. Retailer E-bin""","""20 AH HOOD RD, ZHONG SHAN PARK, #02-01""",329984,329984,"""E-waste accepted: Batteries and Lamps only""","""https://alba-ewaste.sg""",1.327029916,103.8464909
312,"""GIANT @ 161 ANG MO KIO AVE 4""","""2. Retailer E-bin""","""161 ANG MO KIO AVE 4, #01-504""",560161,560161,"""E-waste accepted: Batteries and Lamps only""","""https://alba-ewaste.sg""",1.374164454,103.8395491
313,"""GIANT @ BEDOK MARKET PLACE""","""2. Retailer E-bin""","""348 BEDOK ROAD, #01-01""",469560,469560,"""E-waste accepted: Batteries and Lamps only""","""https://alba-ewaste.sg""",1.331436231,103.9482603
314,"""GIANT @ GIANT HYPERMART TAMPINES""","""2. Retailer E-bin""","""21 TAMPINES NORTH DRIVE 2, GIANT HYPERMART TAMPINES, #03-01""",528765,528765,"""E-waste accepted: Batteries and Lamps only""","""https://alba-ewaste.sg""",1.372101699,103.9319999
315,"""GIANT @ HOUGANG GREEN SHOPPING MALL""","""2. Retailer E-bin""","""21 HOUGANG ST 51, #01-52""",538719,538719,"""E-waste accepted: Batteries and Lamps only""","""https://alba-ewaste.sg""",1.379317835,103.8878471
316,"""GIANT @ IMM""","""2. Retailer E-bin""","""2 JURONG EAST STREET 21, #01-100""",609601,609601,"""E-waste accepted: Batteries and Lamps only""","""https://alba-ewaste.sg""",1.334917588,103.7468771
317,"""GIANT @ LOYANG POINT""","""2. Retailer E-bin""","""259 PASIR RIS ST 21, #01-27""",510259,510259,"""E-waste accepted: Batteries and Lamps only""","""https://alba-ewaste.sg""",1.36645364,103.9645985
318,"""GIANT @ PIONEER MALL""","""2. Retailer E-bin""","""638 JURONG WEST STREET 61, #03-01""",640638,640638,"""E-waste accepted: Batteries and Lamps only""","""https://alba-ewaste.sg""",1.341673319,103.6972445
319,"""GIANT @ SEMBAWANG SHOPPING CENTRE""","""2. Retailer E-bin""","""604 SEMBAWANG ROAD, #B1-25""",758459,758459,"""E-waste accepted: Batteries and Lamps only""","""https://alba-ewaste.sg""",1.441853079,103.8249704
321,"""GIANT @ WOODLANDS NORTH PLAZA""","""2. Retailer E-bin""","""883 WOODLANDS STREET 82, #01-498""",730883,730883,"""E-waste accepted: Batteries and Lamps only""","""https://alba-ewaste.sg""",1.442835921,103.7907708
322,"""LIGHT-PRO FURNISHINGS @ 341 BALESTIER ROAD""","""2. Retailer E-bin""","""341 BALESTIER ROAD, #01-02""",329773,329773,"""E-waste accepted: Batteries and Lamps only""","""https://alba-ewaste.sg""",1.324172585,103.8512087
323,"""MR. DIY @ BOON LAY SHOPPING CENTRE""","""2. Retailer E-bin""","""221 BOON LAY PLACE, BOON LAY SHOPPING COMPLEX, #02-164""",640221,640221,"""E-waste accepted: Batteries and Lamps only""","""https://alba-ewaste.sg""",1.346373764,103.7124728
324,"""MR. DIY @ CENTURY SQUARE""","""2. Retailer E-bin""","""2 TAMPINES CENTRAL 5, CENTURY SQAURE, #04-07 & 04-20/ 21""",529509,529509,"""E-waste accepted: Batteries and Lamps only""","""https://alba-ewaste.sg""",1.352368296,103.9438123
325,"""MR. DIY @ DOWNTOWN EAST""","""2. Retailer E-bin""","""1 PASIR RIS CLOSE, E!HUB, #01-103""",519599,519599,"""E-waste accepted: Batteries and Lamps only""","""https://alba-ewaste.sg""",1.379127179,103.9554448
326,"""MR. DIY @ JUNCTION 10""","""2. Retailer E-bin""","""1 WOODLANDS ROAD, #02-02 TO 07""",677899,677899,"""E-waste accepted: Batteries and Lamps only""","""https://alba-ewaste.sg""",1.38018163,103.7604193
327,"""MR. DIY @ KALLANG BAHRU""","""2. Retailer E-bin""","""71 KALLANG BAHRU, #01-531""",330071,330071,"""E-waste accepted: Batteries and Lamps only""","""https://alba-ewaste.sg""",1.320992942,103.87039
328,"""MR. DIY @ KINEX""","""2. Retailer E-bin""","""11 TANJONG KATONG ROAD, KINEX, #03-29 to 34""",437157,437157,"""E-waste accepted: Batteries and Lamps only""","""https://alba-ewaste.sg""",1.314618499,103.894738
329,"""MR. DIY @ LOYANG POINT""","""2. Retailer E-bin""","""259 PASIR RIS STREET 21, #01-27, NEAR GIANT ENTRANCE""",510259,510259,"""E-waste accepted: Batteries and Lamps only""","""https://alba-ewaste.sg""",1.36645364,103.9645985
330,"""MR. DIY @ SEMBAWANG SHOPPING CENTRE""","""2. Retailer E-bin""","""604 SEMBAWANG ROAD, SEMBAWANG SHOPPING CENTRE, #02-20/21""",758459,758459,"""E-waste accepted: Batteries and Lamps only""","""https://alba-ewaste.sg""",1.441853079,103.8249704
331,"""MR. DIY @ TOA PAYOH""","""2. Retailer E-bin""","""192 TOA PAYOH LOR 4, #02-674""",310192,310192,"""E-waste accepted: Batteries and Lamps only""","""https://alba-ewaste.sg""",1.331616833,103.8506237
332,"""MR. DIY @ WESTGATE""","""2. Retailer E-bin""","""3 GATEWAY DRIVE, WESTGATE, #03-46/47/48""",608532,608532,"""E-waste accepted: Batteries and Lamps only""","""https://alba-ewaste.sg""",1.33415752,103.7427665
333,"""SHENG SIONG @ 108 MCNAIR""","""2. Retailer E-bin""","""108 MCNAIR RD, #01-295""",321108,321108,"""E-waste accepted: Batteries and Lamps only""","""https://alba-ewaste.sg""",1.321619038,103.8593827
334,"""SHENG SIONG @ 115 BEDOK NORTH""","""2. Retailer E-bin""","""115 BEDOK NORTH ROAD, #01-319""",460115,460115,"""E-waste accepted: Batteries and Lamps only""","""https://alba-ewaste.sg""",1.33143368,103.9368654
335,"""SHENG SIONG @ 122 ANG MO KIO""","""2. Retailer E-bin""","""122 ANG MO KIO AVE 3, #01-1753""",560122,560122,"""E-waste accepted: Batteries and Lamps only""","""https://alba-ewaste.sg""",1.370188607,103.8434132
336,"""SHENG SIONG @ 154A BUKIT BATOK WEST""","""2. Retailer E-bin""","""154A BUKIT BATOK WEST AVE 8, #01-01""",651154,651154,"""E-waste accepted: Batteries and Lamps only""","""https://alba-ewaste.sg""",1.347371802,103.7436981
337,"""SHENG SIONG @ 18 TECK WHYE""","""2. Retailer E-bin""","""18 TECK WHYE LANE, #01-95""",680018,680018,"""E-waste accepted: Batteries and Lamps only""","""https://alba-ewaste.sg""",1.378297688,103.7540714
338,"""SHENG SIONG @ 182 WOODLANDS""","""2. Retailer E-bin""","""182 WOODLANDS ST 13, #01-01""",730182,730182,"""E-waste accepted: Batteries and Lamps only""","""https://alba-ewaste.sg""",1.435158951,103.7760233
339,"""SHENG SIONG @ 19 SERANGOON""","""2. Retailer E-bin""","""19 SERANGOON NORTH AVE 5, #01-01""",554913,554913,"""E-waste accepted: Batteries and Lamps only""","""https://alba-ewaste.sg""",1.375635002,103.8719964
340,"""SHENG SIONG @ 200 UPPER THOMSON""","""2. Retailer E-bin""","""200 UPP THOMSON RD, #B1-01""",574424,574424,"""E-waste accepted: Batteries and Lamps only""","""https://alba-ewaste.sg""",1.351844992,103.8360536
341,"""SHENG SIONG @ 200 WOODLANDS IND PARK""","""2. Retailer E-bin""","""200 WOODLANDS INDUSTRIAL PARK E7, #01-30""",757177,757177,"""E-waste accepted: Batteries and Lamps only""","""https://alba-ewaste.sg""",1.450749733,103.7968465
342,"""SHENG SIONG @ 209 NEW UPPER CHANGI RD""","""2. Retailer E-bin""","""209 NEW UPPER CHANGI RD, #01-631, BESIDE MAIN ENTRANCE""",460209,460209,"""E-waste accepted: Batteries and Lamps only""","""https://alba-ewaste.sg""",1.324635731,103.9310688
343,"""SHENG SIONG @ 231 SUMANG LANE""","""2. Retailer E-bin""","""231 SUMANG LANE, #01-02""",820231,820231,"""E-waste accepted: Batteries and Lamps only""","""https://alba-ewaste.sg""",1.402059983,103.8922117
344,"""SHENG SIONG @ 233 ANG MO KIO""","""2. Retailer E-bin""","""233 ANG MO KIO AVE 3, #01-1168""",560233,560233,"""E-waste accepted: Batteries and Lamps only""","""https://alba-ewaste.sg""",1.36754925,103.8367406
345,"""SHENG SIONG @ 25 GHIM MOH""","""2. Retailer E-bin""","""25 GHIM MOH LINK, #01-11""",270025,270025,"""E-waste accepted: Batteries and Lamps only""","""https://alba-ewaste.sg""",1.308147469,103.7862552
346,"""SHENG SIONG @ 258 PASIR RIS""","""2. Retailer E-bin""","""258 PASIR RIS ST 21, #02-10""",510258,510258,"""E-waste accepted: Batteries and Lamps only""","""https://alba-ewaste.sg""",1.367066342,103.9646356
347,"""SHENG SIONG @ 292 BUKIT BATOK EAST AVENUE""","""2. Retailer E-bin""","""292 BUKIT BATOK EAST AVENUE 6, #01-02""",650292,650292,"""E-waste accepted: Batteries and Lamps only""","""https://alba-ewaste.sg""",1.344471363,103.7553946
348,"""SHENG SIONG @ 3 YUAN CHING""","""2. Retailer E-bin""","""3 YUAN CHING RD, #01-01A/02""",618642,618642,"""E-waste accepted: Batteries and Lamps only""","""https://alba-ewaste.sg""",1.325474088,103.7252477
349,"""SHENG SIONG @ 301 GEYLANG""","""2. Retailer E-bin""","""301 GEYLANG ROAD, #01-02""",389344,389344,"""E-waste accepted: Batteries and Lamps only""","""https://alba-ewaste.sg""",1.312721174,103.878642
350,"""SHENG SIONG @ 301 PUNGGOL CENTRAL""","""2. Retailer E-bin""","""301 PUNGGOL CENTRAL, #01-01""",820301,820301,"""E-waste accepted: Batteries and Lamps only""","""https://alba-ewaste.sg""",1.403719398,103.906138
351,"""SHENG SIONG @ 301 WOODLANDS""","""2. Retailer E-bin""","""301 WOODLANDS ST 31, #01-217""",730301,730301,"""E-waste accepted: Batteries and Lamps only""","""https://alba-ewaste.sg""",1.43150527,103.7735157
352,"""SHENG SIONG @ 351 ANCHORVALE ROAD""","""2. Retailer E-bin""","""351 ANCHORVALE ROAD, #01-05""",540351,540351,"""E-waste accepted: Batteries and Lamps only""","""https://alba-ewaste.sg""",1.393327866,103.8866176
353,"""SHENG SIONG @ 352 CLEMENTI""","""2. Retailer E-bin""","""352 CLEMENTI AVE 2, #01-91""",120352,120352,"""E-waste accepted: Batteries and Lamps only""","""https://alba-ewaste.sg""",1.31427266,103.7713609
354,"""SHENG SIONG @ 4 LOR 7 TOA PAYOH""","""2. Retailer E-bin""","""4 LORONG 7 TOA PAYOH, #01-107""",310004,310004,"""E-waste accepted: Batteries and Lamps only""","""https://alba-ewaste.sg""",1.339044798,103.8555411
355,"""SHENG SIONG @ 4 WOODLANDS""","""2. Retailer E-bin""","""4 WOODLANDS STREET 12, #02-61""",738623,738623,"""E-waste accepted: Batteries and Lamps only""","""https://alba-ewaste.sg""",1.433543181,103.7798819
356,"""SHENG SIONG @ 420A CLEMENTI""","""2. Retailer E-bin""","""420A CLEMENTI AVE 1, #01-01""",121420,121420,"""E-waste accepted: Batteries and Lamps only""","""https://alba-ewaste.sg""",1.309733312,103.7686373
357,"""SHENG SIONG @ 455 SENGKANG""","""2. Retailer E-bin""","""455 SENGKANG WEST AVENUE, #01-16""",790455,790455,"""E-waste accepted: Batteries and Lamps only""","""https://alba-ewaste.sg""",1.391836883,103.8711904
358,"""SHENG SIONG @ 506 TAMPINES""","""2. Retailer E-bin""","""506 TAMPINES CENTRAL 1, #01-361""",520506,520506,"""E-waste accepted: Batteries and Lamps only""","""https://alba-ewaste.sg""",1.355952387,103.9459374
359,"""SHENG SIONG @ 52 CHIN SWEE""","""2. Retailer E-bin""","""52 CHIN SWEE RD, #01-25""",160052,160052,"""E-waste accepted: Batteries and Lamps only""","""https://alba-ewaste.sg""",1.287082783,103.8415801
360,"""SHENG SIONG @ 539A BEDOK NORTH""","""2. Retailer E-bin""","""539A BEDOK NORTH ST 3, #01-477""",461539,461539,"""E-waste accepted: Batteries and Lamps only""","""https://alba-ewaste.sg""",1.332402306,103.9255006
361,"""SHENG SIONG @ 544 JURONG WEST""","""2. Retailer E-bin""","""544 JURONG WEST ST 42, #01-97""",640544,640544,"""E-waste accepted: Batteries and Lamps only""","""https://alba-ewaste.sg""",1.352393583,103.7157595
362,"""SHENG SIONG @ 573 WOODLANDS""","""2. Retailer E-bin""","""573 WOODLANDS DRIVE 16, #02-01""",730573,730573,"""E-waste accepted: Batteries and Lamps only""","""https://alba-ewaste.sg""",1.431098072,103.7985076
363,"""SHENG SIONG @ 61 TEBAN GARDENS RD""","""2. Retailer E-bin""","""61 TEBAN GARDENS RD, #01-21""",600061,600061,"""E-waste accepted: Batteries and Lamps only""","""https://alba-ewaste.sg""",1.32237497,103.7384128
364,"""SHENG SIONG @ 623 ELIAS MALL""","""2. Retailer E-bin""","""623 ELIAS ROAD, #B1-01""",510623,510623,"""E-waste accepted: Batteries and Lamps only""","""https://alba-ewaste.sg""",1.377828766,103.9423643
365,"""SHENG SIONG @ 675 YISHUN""","""2. Retailer E-bin""","""675 YISHUN AVENUE 4, #01-10""",760675,760675,"""E-waste accepted: Batteries and Lamps only""","""https://alba-ewaste.sg""",1.420062937,103.8435614
366,"""SHENG SIONG @ 7 JURONG WEST""","""2. Retailer E-bin""","""7 JURONG WEST AVE 5, #01-01""",649486,649486,"""E-waste accepted: Batteries and Lamps only""","""https://alba-ewaste.sg""",1.348784897,103.7034157
367,"""SHENG SIONG @ 739A BEDOK RESERVOIR""","""2. Retailer E-bin""","""739A BEDOK RESERVOIR RD, #01-01""",471739,471739,"""E-waste accepted: Batteries and Lamps only""","""https://alba-ewaste.sg""",1.338242032,103.9233039
368,"""SHENG SIONG @ 785E WOODLANDS""","""2. Retailer E-bin""","""785E WOODLANDS RISE, #01-01""",735785,735785,"""E-waste accepted: Batteries and Lamps only""","""https://alba-ewaste.sg""",1.446792595,103.8054835
369,"""SHENG SIONG @ 845 YISHUN""","""2. Retailer E-bin""","""845 YISHUN STREET 81, #01-184""",760845,760845,"""E-waste accepted: Batteries and Lamps only""","""https://alba-ewaste.sg""",1.416079404,103.8350192
370,"""SHENG SIONG @ 88 TANGLIN HALT""","""2. Retailer E-bin""","""88 TANGLIN HALT ROAD, #01-10""",141088,141088,"""E-waste accepted: Batteries and Lamps only""","""https://alba-ewaste.sg""",1.302038022,103.7980217
371,"""SHENG SIONG @ 925 YISHUN CENTRAL""","""2. Retailer E-bin""","""925 YISHUN CENTRAL 1, #01-211""",760925,760925,"""E-waste accepted: Batteries and Lamps only""","""https://alba-ewaste.sg""",1.427505497,103.8371253
372,"""SHENG SIONG @ ANCHORVALE""","""2. Retailer E-bin""","""338 ANCHORVALE CRESCENT, #01-11""",540338,540338,"""E-waste accepted: Batteries and Lamps only""","""https://alba-ewaste.sg""",1.399227725,103.8896559
373,"""SHENG SIONG @ BOON KENG""","""2. Retailer E-bin""","""11 UPPER BOON KENG ROAD, #01-901""",380011,380011,"""E-waste accepted: Batteries and Lamps only""","""https://alba-ewaste.sg""",1.31423937,103.870914
374,"""SHENG SIONG @ BUKIT BATOK WEST""","""2. Retailer E-bin""","""440 BUKIT BATOK WEST AVE 8, #01-10""",650440,650440,"""E-waste accepted: Batteries and Lamps only""","""https://alba-ewaste.sg""",1.355723081,103.7393031
375,"""SHENG SIONG @ CIRCUIT ROAD""","""2. Retailer E-bin""","""18B CIRCUIT ROAD, #01-260""",372018,372018,"""E-waste accepted: Batteries and Lamps only""","""https://alba-ewaste.sg""",1.329181051,103.8882484
376,"""SHENG SIONG @ DAWSON""","""2. Retailer E-bin""","""85 DAWSON ROAD, #01-01""",141085,141085,"""E-waste accepted: Batteries and Lamps only""","""https://alba-ewaste.sg""",1.295319663,103.8097586
377,"""SHENG SIONG @ EDGEDALE PLAINS""","""2. Retailer E-bin""","""660A EDGEDALE PLAINS, #01-01""",821660,821660,"""E-waste accepted: Batteries and Lamps only""","""https://alba-ewaste.sg""",1.402621973,103.9165196
378,"""SHENG SIONG @ FERNVALE LINK""","""2. Retailer E-bin""","""417 FERNVALE LINK, #01-11""",790417,790417,"""E-waste accepted: Batteries and Lamps only""","""https://alba-ewaste.sg""",1.39158623,103.8798746
379,"""SHENG SIONG @ FERNVALE ST""","""2. Retailer E-bin""","""473 FERVALE STREET, #01-06""",790473,790473,"""E-waste accepted: Batteries and Lamps only""","""https://alba-ewaste.sg""",1.397798747,103.8816988
380,"""SHENG SIONG @ JUNCTION 10""","""2. Retailer E-bin""","""1 WOODLANDS ROAD, JUNCTION 10, #01-07""",677899,677899,"""E-waste accepted: Batteries and Lamps only""","""https://alba-ewaste.sg""",1.38018163,103.7604193
381,"""SHENG SIONG @ JUNCTION 9""","""2. Retailer E-bin""","""18 YISHUN AVENUE 9, JUNCTION NINE, #02-06""",768897,768897,"""E-waste accepted: Batteries and Lamps only""","""https://alba-ewaste.sg""",1.433060217,103.8416494
382,"""SHENG SIONG @ MARSILING DRIVE 202""","""2. Retailer E-bin""","""202 MARSILING DRIVE, #01-138""",730202,730202,"""E-waste accepted: Batteries and Lamps only""","""https://alba-ewaste.sg""",1.443151211,103.7751648
383,"""SHENG SIONG @ NEW WORLD CENTRE""","""2. Retailer E-bin""","""1 JALAN BERSEH, #B1-02/22""",209037,209037,"""E-waste accepted: Batteries and Lamps only""","""https://alba-ewaste.sg""",1.307785095,103.857011
384,"""SHENG SIONG @ PASIR RIS""","""2. Retailer E-bin""","""527D PASIR RIS STREET 51, #01-01""",514527,514527,"""E-waste accepted: Batteries and Lamps only""","""https://alba-ewaste.sg""",1.369686255,103.9479224
385,"""SHENG SIONG @ POTONG PASIR COMMUNITY CLUB""","""2. Retailer E-bin""","""6 POTONG PASIR AVENUE 2, LEVEL 1""",358361,358361,"""E-waste accepted: Batteries and Lamps only""","""https://alba-ewaste.sg""",1.332582969,103.8671398
386,"""SHENG SIONG @ SEGAR""","""2. Retailer E-bin""","""547 SEGAR ROAD, #01-06""",670547,670547,"""E-waste accepted: Batteries and Lamps only""","""https://alba-ewaste.sg""",1.388240217,103.7695754
387,"""SHENG SIONG @ SUMANG LINK""","""2. Retailer E-bin""","""312A SUMANG LINK, #01-04""",821312,821312,"""E-waste accepted: Batteries and Lamps only""","""https://alba-ewaste.sg""",1.410819269,103.9003717
388,"""SHENG SIONG @ TAMPINES ST 86 872C""","""2. Retailer E-bin""","""872C TAMPINES STREET 86""",523872,523872,"""E-waste accepted: Batteries and Lamps only""","""https://alba-ewaste.sg""",1.355226471,103.9316263
389,"""7-ELEVEN @ CITY HALL MRT STATION""","""2. Retailer E-bin""","""150 NORTH BRIDGE ROAD, CITY HALL MRT STATION, #B1-01""",179100,179100,"""E-waste accepted: Batteries only""","""https://alba-ewaste.sg""",1.292936722,103.8525856
392,"""COLD STORAGE @ CAUSEWAY POINT""","""2. Retailer E-bin""","""1 WOODLANDS SQUARE, #B1-31""",738099,738099,"""E-waste accepted: Batteries only""","""https://alba-ewaste.sg""",1.435900079,103.7857958
393,"""COLD STORAGE @ CLAYMORE CONNECT ORCHARD HOTEL""","""2. Retailer E-bin""","""442 ORCHARD ROAD, #B1-01""",238879,238879,"""E-waste accepted: Batteries only""","""https://alba-ewaste.sg""",1.307668609,103.8281644
394,"""COLD STORAGE @ CLEMENTI ARCADE""","""2. Retailer E-bin""","""41 SUNSET WAY, #01-01A""",597071,597071,"""E-waste accepted: Batteries only""","""https://alba-ewaste.sg""",1.323552869,103.7675155
395,"""COLD STORAGE @ EAST VILLAGE""","""2. Retailer E-bin""","""430 UPPER CHANGI ROAD, #01-47""",487048,487048,"""E-waste accepted: Batteries only""","""https://alba-ewaste.sg""",1.331775815,103.9462012
396,"""COLD STORAGE @ GREENWICH VILLAGE""","""2. Retailer E-bin""","""1 SELETAR ROAD, #01-11""",807011,807011,"""E-waste accepted: Batteries only""","""https://alba-ewaste.sg""",1.387395394,103.869136
398,"""COLD STORAGE @ HEARTLAND MALL - KOVAN""","""2. Retailer E-bin""","""205 HOUGANG STREET 21, #01-133""",530205,530205,"""E-waste accepted: Batteries only""","""https://alba-ewaste.sg""",1.359541773,103.8851674
399,"""COLD STORAGE @ HOLLAND SHOPPING CENTRE""","""2. Retailer E-bin""","""211 HOLLAND AVENUE, #01-02""",278967,278967,"""E-waste accepted: Batteries only""","""https://alba-ewaste.sg""",1.310277476,103.7953712
400,"""COLD STORAGE @ NEX""","""2. Retailer E-bin""","""23 SERANGOON CENTRAL, #B2-44""",556083,556083,"""E-waste accepted: Batteries only""","""https://alba-ewaste.sg""",1.350675514,103.8718616
401,"""COLD STORAGE @ NORTHPOINT CITY""","""2. Retailer E-bin""","""930 YISHUN AVE 2, #B1-06""",769098,769098,"""E-waste accepted: Batteries only""","""https://alba-ewaste.sg""",1.429244143,103.8361072
402,"""COLD STORAGE @ SIME DARBY""","""2. Retailer E-bin""","""896 DUNEARN ROAD, #02-01""",589472,589472,"""E-waste accepted: Batteries only""","""https://alba-ewaste.sg""",1.336675737,103.7837092
403,"""COLD STORAGE @ TAKASHIMAYA NGEE ANN CITY""","""2. Retailer E-bin""","""391A ORCHARD ROAD, #B2-01, NEAR CASHIER""",238872,238872,"""E-waste accepted: Batteries only""","""https://alba-ewaste.sg""",1.302424172,103.8346761
404,"""COLD STORAGE @ TAMPINES 1""","""2. Retailer E-bin""","""10 TAMPINES CENTRAL 1, #B1-01""",529536,529536,"""E-waste accepted: Batteries only""","""https://alba-ewaste.sg""",1.354323212,103.9451412
405,"""COLD STORAGE @ THE RAIL MALL""","""2. Retailer E-bin""","""464-484 UPPER BUKIT TIMAH ROAD""",678077,678077,"""E-waste accepted: Batteries only""","""https://alba-ewaste.sg""",1.360123682,103.7675422
407,"""COLD STORAGE @ WEST MALL""","""2. Retailer E-bin""","""1 BUKIT BATOK CENTRAL LINK, #B1-01""",658713,658713,"""E-waste accepted: Batteries only""","""https://alba-ewaste.sg""",1.350375416,103.7491239
408,"""DECATHLON @ BEDOK""","""2. Retailer E-bin""","""750A CHAI CHEE ROAD, #01-01""",469001,469001,"""E-waste accepted: Batteries only""","""https://alba-ewaste.sg""",1.322978202,103.9221246
409,"""DECATHLON @ CITY SQUARE MALL""","""2. Retailer E-bin""","""180 KITCHENER RD, CITY SQUARE MALL, #02-03""",208539,208539,"""E-waste accepted: Batteries only""","""https://alba-ewaste.sg""",1.311305171,103.8564218
410,"""DECATHLON @ JOO KOON""","""2. Retailer E-bin""","""1 JOO KOON CIRCLE, FAIRPRICE HUB, #02-21""",629117,629117,"""E-waste accepted: Batteries only""","""https://alba-ewaste.sg""",1.324606649,103.6780964
411,"""DECATHLON @ NORTHSHORE PLAZA""","""2. Retailer E-bin""","""407 NORTHSHORE DRIVE, #01-27""",820407,820407,"""E-waste accepted: Batteries only""","""https://alba-ewaste.sg""",1.416761272,103.9020744
412,"""DECATHLON @ STADIUM""","""2. Retailer E-bin""","""230 STADIUM BOULEVARD""",397799,397799,"""E-waste accepted: Batteries only""","""https://alba-ewaste.sg""",1.304260161,103.8823678
413,"""DECATHLON @ THE CENTREPOINT""","""2. Retailer E-bin""","""176 ORCHARD ROAD, THE CENTREPOINT, #01-14""",238843,238843,"""E-waste accepted: Batteries only""","""https://alba-ewaste.sg""",1.301514467,103.8400544
414,"""FAIRPRICE @ 107 TAMPINES ST 11""","""2. Retailer E-bin""","""107 TAMPINES ST 11, #01-353/355/357/359""",521107,521107,"""E-waste accepted: Batteries only""","""https://alba-ewaste.sg""",1.348371058,103.9481289
415,"""FAIRPRICE @ 12 ALEXANDRA VIEW""","""2. Retailer E-bin""","""12 ALEXANDRA VIEW, #01-18""",158736,158736,"""E-waste accepted: Batteries only""","""https://alba-ewaste.sg""",1.290127655,103.8165523
416,"""FAIRPRICE @ 152B SERANGOON AVE 4""","""2. Retailer E-bin""","""152B SERANGOON NORTH AVE 1, #01-384""",552152,552152,"""E-waste accepted: Batteries only""","""https://alba-ewaste.sg""",1.369799404,103.8730358
417,"""FAIRPRICE @ 20 LENGKOK BAHRU""","""2. Retailer E-bin""","""20 LENGKOK BAHRU, #01-13""",159053,159053,"""E-waste accepted: Batteries only""","""https://alba-ewaste.sg""",1.286832972,103.8146699
418,"""FAIRPRICE @ 253 SERANGOON CENTRAL DR""","""2. Retailer E-bin""","""253 SERANGOON CENTRAL DR, #01-241""",550253,550253,"""E-waste accepted: Batteries only""","""https://alba-ewaste.sg""",1.354039398,103.8708515
419,"""FAIRPRICE @ 279 BISHAN ST 24""","""2. Retailer E-bin""","""279 BISHAN ST 24, #01-62/64""",570279,570279,"""E-waste accepted: Batteries only""","""https://alba-ewaste.sg""",1.357222831,103.8437853
420,"""FAIRPRICE @ 29A GHIM MOH LINK""","""2. Retailer E-bin""","""29A GHIM MOH LINK, #01-01""",271029,271029,"""E-waste accepted: Batteries only""","""https://alba-ewaste.sg""",1.308492881,103.7845981
421,"""FAIRPRICE @ 4 BUKIT BATOK ST 41""","""2. Retailer E-bin""","""4 BUKIT BATOK ST 41 #01-91/92""",657991,657991,"""E-waste accepted: Batteries only""","""https://alba-ewaste.sg""",1.355941712,103.741127
422,"""FAIRPRICE @ 476 UPPER SERANGOON VIEW""","""2. Retailer E-bin""","""476 UPPER SERANGOON VIEW, #02-18""",530476,530476,"""E-waste accepted: Batteries only""","""https://alba-ewaste.sg""",1.377433378,103.9037136
423,"""FAIRPRICE @ 683 HOUGANG AVE 4""","""2. Retailer E-bin""","""682 HOUGANG AVE 4, #01-310""",530682,530682,"""E-waste accepted: Batteries only""","""https://alba-ewaste.sg""",1.373618304,103.8857489
424,"""FAIRPRICE @ 745 BEDOK RESEVOIR RD""","""2. Retailer E-bin""","""745 BEDOK RESERVOIR RD, #01-3015""",470745,470745,"""E-waste accepted: Batteries only""","""https://alba-ewaste.sg""",1.337376225,103.9217412
425,"""FAIRPRICE @ CORONATION PLAZA""","""2. Retailer E-bin""","""587 BUKIT TIMAH RD #01-01 CORONATION PLAZA, #01-01""",269707,269707,"""E-waste accepted: Batteries only""","""https://alba-ewaste.sg""",1.323835122,103.8099996
426,"""FAIRPRICE @ E!HUB""","""2. Retailer E-bin""","""1 PASIR RIS CLOSE, E!HUB DOWNTOWN EAST, #02-127, #02-127""",519599,519599,"""E-waste accepted: Batteries only""","""https://alba-ewaste.sg""",1.379127179,103.9554448
427,"""FAIRPRICE @ FAIRPRICE HUB""","""2. Retailer E-bin""","""1 JOO KOON CIRCLE, FAIRPRICE HUB, LEVEL 3""",629117,629117,"""E-waste accepted: Batteries only""","""https://alba-ewaste.sg""",1.324606649,103.6780964
428,"""FAIRPRICE @ FUNAN MALL""","""2. Retailer E-bin""","""107 NORTH BRIDGE RD #B1-10 FUNAN MALL, #B1-10""",179105,179105,"""E-waste accepted: Batteries only""","""https://alba-ewaste.sg""",1.291347597,103.8499898
429,"""FAIRPRICE @ JEWEL CHANGI AIRPORT""","""2. Retailer E-bin""","""78 AIRPORT BOULEVARD, JEWEL CHANGI AIRPORT, #B2-205 TO 208""",819666,819666,"""E-waste accepted: Batteries only""","""https://alba-ewaste.sg""",1.360062894,103.9899892
430,"""FAIRPRICE @ KATONG VILLAGE HOTEL""","""2. Retailer E-bin""","""30 EAST COAST RD, KATONG VILLAGE HOTEL, #01-06/07/08/09""",428751,428751,"""E-waste accepted: Batteries only""","""https://alba-ewaste.sg""",1.303861208,103.9028714
431,"""FAIRPRICE @ TEKKA PLACE""","""2. Retailer E-bin""","""2 SERANGOON RD, TEKKA PLACE, #B1-06/07/08/09""",218227,218227,"""E-waste accepted: Batteries only""","""https://alba-ewaste.sg""",1.305122222,103.8514388
432,"""FAIRPRICE @ TERMINAL 3""","""2. Retailer E-bin""","""65 AIRPORT BOULEVARD, CHANGI AIRPORT TERMINAL 3, #B2-10""",819663,819663,"""E-waste accepted: Batteries only""","""https://alba-ewaste.sg""",1.354370741,103.9851696
433,"""FAIRPRICE @ THE WOODGROVE""","""2. Retailer E-bin""","""30 WOODLANDS AVE 1, THE WOODGROVE, #01-11""",739065,739065,"""E-waste accepted: Batteries only""","""https://alba-ewaste.sg""",1.429384741,103.7812921
434,"""FAIRPRICE @ TIONG BAHRU PLAZA""","""2. Retailer E-bin""","""302 TIONG BAHRU ROAD, #B1-01""",168732,168732,"""E-waste accepted: Batteries only""","""https://alba-ewaste.sg""",1.286463454,103.8269351
435,"""FAIRPRICE @ VALLEY POINT""","""2. Retailer E-bin""","""491 RIVER VALLEY ROAD, VALLEY POINT, #01-14""",248371,248371,"""E-waste accepted: Batteries only""","""https://alba-ewaste.sg""",1.293099172,103.8270462
436,"""FAIRPRICE @ WATERWAY POINT""","""2. Retailer E-bin""","""83 PUNGGOL CENTRAL, WATERWAY POINT, #B2-32""",828761,828761,"""E-waste accepted: Batteries only""","""https://alba-ewaste.sg""",1.406412835,103.9021889
437,"""GIANT @ 256 BANGKIT ROAD""","""2. Retailer E-bin""","""256 BANGKIT ROAD, #01-69""",670256,670256,"""E-waste accepted: Batteries only""","""https://alba-ewaste.sg""",1.379047757,103.7729375
438,"""GIANT @ 260 KIM KEAT AVENUE""","""2. Retailer E-bin""","""260 KIM KEAT AVENUE, #01-01""",310260,310260,"""E-waste accepted: Batteries only""","""https://alba-ewaste.sg""",1.331999623,103.8573785
439,"""GIANT @ 284 BUKIT BATOK EAST""","""2. Retailer E-bin""","""284 BUKIT BATOK EAST, #01-251""",650284,650284,"""E-waste accepted: Batteries only""","""https://alba-ewaste.sg""",1.346699052,103.7572767
440,"""GIANT @ 293 YISHUN ST 22""","""2. Retailer E-bin""","""293 YISHUN STREET 22, #01-261""",760293,760293,"""E-waste accepted: Batteries only""","""https://alba-ewaste.sg""",1.436114254,103.8376052
441,"""GIANT @ 376 BUKIT BATOK ST 31""","""2. Retailer E-bin""","""376 BUKIT BATOK ST 31, #01-116""",650376,650376,"""E-waste accepted: Batteries only""","""https://alba-ewaste.sg""",1.358317052,103.7495799
442,"""GIANT @ 418 YISHUN AVENUE 11""","""2. Retailer E-bin""","""418 YISHUN AVENUE 11, #01-433""",760418,760418,"""E-waste accepted: Batteries only""","""https://alba-ewaste.sg""",1.424899319,103.8472498
443,"""GIANT @ 440 PASIR RIS DRIVE""","""2. Retailer E-bin""","""440 PASIR RIS DRIVE 4, #01-01""",510440,510440,"""E-waste accepted: Batteries only""","""https://alba-ewaste.sg""",1.369008093,103.9586966
444,"""GIANT @ 525 ANG MO KIO AVE 10""","""2. Retailer E-bin""","""525 ANG MO KIO AVE 10, #01-2401""",560525,560525,"""E-waste accepted: Batteries only""","""https://alba-ewaste.sg""",1.372645696,103.8538907
445,"""GIANT @ 622D PUNGGOL CENTRAL""","""2. Retailer E-bin""","""622D PUNGGOL CENTRAL, #01-06""",824622,824622,"""E-waste accepted: Batteries only""","""https://alba-ewaste.sg""",1.40053115,103.9105369
446,"""GIANT @ 982 BUANGKOK CRESCENT""","""2. Retailer E-bin""","""982 BUANGKOK CRESCENT, #01-01""",530982,530982,"""E-waste accepted: Batteries only""","""https://alba-ewaste.sg""",1.380850355,103.8793091
447,"""GIANT @ ADMIRALTY MRT""","""2. Retailer E-bin""","""70  WOODLANDS AVE 7, #01-05""",738344,738344,"""E-waste accepted: Batteries only""","""https://alba-ewaste.sg""",1.440588562,103.8009905
448,"""GIANT @ BEAUTY WORLD CENTRE""","""2. Retailer E-bin""","""144 UPPER BUKIT TIMAH ROAD, #B1-01""",588177,588177,"""E-waste accepted: Batteries only""","""https://alba-ewaste.sg""",1.342412642,103.7765394
449,"""GIANT @ GREENRIDGE SHOPPING CENTRE""","""2. Retailer E-bin""","""524A JELAPANG ROAD, #03-13""",671524,671524,"""E-waste accepted: Batteries only""","""https://alba-ewaste.sg""",1.385405693,103.7662285
450,"""GIANT @ HDB BISHAN BRANCH OFFICE""","""2. Retailer E-bin""","""512 BISHAN STREET 13, #01-524""",570512,570512,"""E-waste accepted: Batteries only""","""https://alba-ewaste.sg""",1.34962235,103.8498817
451,"""GIANT @ JK CENTRE""","""2. Retailer E-bin""","""291 JOO CHIAT RD, #01-01""",427543,427543,"""E-waste accepted: Batteries only""","""https://alba-ewaste.sg""",1.30987097,103.902355
452,"""GIANT @ KAMPUNG UBI""","""2. Retailer E-bin""","""306 UBI AVE 1, KAMPUNG UBI, #01-85""",400306,400306,"""E-waste accepted: Batteries only""","""https://alba-ewaste.sg""",1.329871172,103.9019304
453,"""GIANT @ KHATIB MRT""","""2. Retailer E-bin""","""201 YISHUN AVE 2, #01-03""",618640,618640,"""E-waste accepted: Batteries only""","""https://alba-ewaste.sg""",1.325911705,103.7245502
454,"""GIANT @ NEXT TO SERANGOON MARKET""","""2. Retailer E-bin""","""266 SERANGOON CENTRAL DRIVE, #01-255""",550266,550266,"""E-waste accepted: Batteries only""","""https://alba-ewaste.sg""",1.35323213,103.8714724
455,"""GIANT @ NTU CANTEEN 2""","""2. Retailer E-bin""","""35 STUDENTS WALK, #01-01""",639548,639548,"""E-waste accepted: Batteries only""","""https://alba-ewaste.sg""",1.348422666,103.6854342
456,"""GIANT @ SUNSHINE PLACE""","""2. Retailer E-bin""","""475 CHOA CHU KANG AVE 3, #01-01""",680475,680475,"""E-waste accepted: Batteries only""","""https://alba-ewaste.sg""",1.377897277,103.7390155
457,"""GIANT @ TAMPINES MART""","""2. Retailer E-bin""","""9 TAMPINES STREET 32, #01-16""",529286,529286,"""E-waste accepted: Batteries only""","""https://alba-ewaste.sg""",1.35416724,103.9599359
458,"""GIANT @ VISTA POINT""","""2. Retailer E-bin""","""548 WOODLANDS DRIVE 44, #01-37""",730548,730548,"""E-waste accepted: Batteries only""","""https://alba-ewaste.sg""",1.430999316,103.7941016
459,"""GIANT @ WATERWAY BANKS""","""2. Retailer E-bin""","""671 EDGEFIELD PLAINS""",820671,820671,"""E-waste accepted: Batteries only""","""https://alba-ewaste.sg""",1.40566048,103.9119913
460,"""BEST DENKI @ BEDOK MALL""","""2. Retailer E-bin""","""311 NEW UPPER CHANGI ROAD, BEDOK MALL, #B1-01/43/44, BASEMENT 1 MAIN ENTRANCE""",467360,467360,"""E-waste accepted: ICT equipment, Batteries and Lamps only""","""https://alba-ewaste.sg""",1.324750542,103.9291892
461,"""BEST DENKI @ FUNAN""","""2. Retailer E-bin""","""109 NORTH BRIDGE ROAD, FUNAN, #03-16, IN-STORE""",179097,179097,"""E-waste accepted: ICT equipment, Batteries and Lamps only""","""https://alba-ewaste.sg""",1.291372584,103.8502825
462,"""BEST DENKI @ GREAT WORLD CITY""","""2. Retailer E-bin""","""1 KIM SENG PROMENADE, GREAT WORLD CITY, #07-01""",237994,237994,"""E-waste accepted: ICT equipment, Batteries and Lamps only""","""https://alba-ewaste.sg""",1.293172204,103.8320953
463,"""BEST DENKI @ HILLION MALL""","""2. Retailer E-bin""","""17 PETIR ROAD, HILLION MALL, #B1-65, BASEMENT 1""",678278,678278,"""E-waste accepted: ICT equipment, Batteries and Lamps only""","""https://alba-ewaste.sg""",1.378411651,103.7638295
464,"""BEST DENKI @ IMM""","""2. Retailer E-bin""","""2 JURONG EAST STREET 21, IMM, #03-33, IN-STORE""",609601,609601,"""E-waste accepted: ICT equipment, Batteries and Lamps only""","""https://alba-ewaste.sg""",1.334917588,103.7468771
465,"""BEST DENKI @ JUNCTION 8 SHOPPING CENTRE""","""2. Retailer E-bin""","""9 BISHAN PLACE, JUNCTION 8 SHOPPING CENTRE, #03-02, IN-STORE""",579837,579837,"""E-waste accepted: ICT equipment, Batteries and Lamps only""","""https://alba-ewaste.sg""",1.350422157,103.8488262
466,"""BEST DENKI @ JURONG POINT""","""2. Retailer E-bin""","""63 JURONG WEST CENTRAL 3, JURONG POINT, #B1-92, IN-STORE""",648331,648331,"""E-waste accepted: ICT equipment, Batteries and Lamps only""","""https://alba-ewaste.sg""",1.33931504,103.705351
467,"""BEST DENKI @ NGEE ANN CITY TOWER A""","""2. Retailer E-bin""","""391A ORCHARD ROAD, NGEE ANN CITY TOWER A, LEVEL 5""",238873,238873,"""E-waste accepted: ICT equipment, Batteries and Lamps only""","""https://alba-ewaste.sg""",1.302424172,103.8346761
468,"""BEST DENKI @ PARKWAY PARADE""","""2. Retailer E-bin""","""80 MARINE PARADE ROAD, PARKWAY PARADE, #03-29, IN-STORE""",449269,449269,"""E-waste accepted: ICT equipment, Batteries and Lamps only""","""https://alba-ewaste.sg""",1.30106068,103.9053395
469,"""BEST DENKI @ PLAZA SINGAPURA""","""2. Retailer E-bin""","""68 ORCHARD ROAD, PLAZA SINGAPURA, #03-39, BESIDE CASHIER COUNTER""",238839,238839,"""E-waste accepted: ICT equipment, Batteries and Lamps only""","""https://alba-ewaste.sg""",1.300820718,103.8450673
470,"""BEST DENKI @ THE CLEMENTI MALL""","""2. Retailer E-bin""","""3155 COMMONWEALTH AVENUE WEST, THE CLEMENTI MALL, #04-46/47/48/49, IN-STORE""",129588,129588,"""E-waste accepted: ICT equipment, Batteries and Lamps only""","""https://alba-ewaste.sg""",1.315495939,103.7645838
472,"""BEST DENKI @ WATERWAY POINT""","""2. Retailer E-bin""","""83 PUNGGOL CENTRAL, WATERWAY POINT, EAST WING, MAIN ENTRANCE""",828761,828761,"""E-waste accepted: ICT equipment, Batteries and Lamps only""","""https://alba-ewaste.sg""",1.406412835,103.9021889
473,"""CASH CONVERTERS @ 135 JURONG GATEWAY ROAD""","""2. Retailer E-bin""","""135 JURONG GATEWAY ROAD, BUYER'S OFFICE""",600135,600135,"""E-waste accepted: ICT equipment, Batteries and Lamps only""","""https://alba-ewaste.sg""",1.333822942,103.739755
474,"""CASH CONVERTERS @ 192 TOA PAYOH LORONG 4""","""2. Retailer E-bin""","""192 TOA PAYOH LORONG 4, BUYER'S OFFICE""",310192,310192,"""E-waste accepted: ICT equipment, Batteries and Lamps only""","""https://alba-ewaste.sg""",1.331616833,103.8506237
475,"""CASH CONVERTERS @ 510 TAMPINES CENTRAL 1""","""2. Retailer E-bin""","""510 TAMPINES CENTRAL 1, BUYER'S OFFICE""",520510,520510,"""E-waste accepted: ICT equipment, Batteries and Lamps only""","""https://alba-ewaste.sg""",1.35480108,103.9444581
476,"""CASH CONVERTERS @ 710A ANG MO KIO AVE 8""","""2. Retailer E-bin""","""710A ANG MO KIO AVE 8, GROUND FLOOR - BUYER’S OFFICE""",561710,561710,"""E-waste accepted: ICT equipment, Batteries and Lamps only""","""https://alba-ewaste.sg""",1.370624935,103.8480457
477,"""CHALLENGER @ ANG MO KIO HUB""","""2. Retailer E-bin""","""ANG MO KIO AVENUE 3, ANG MOH KIO HUB, #B1-58, OUTLET ENTRANCE""",569933,569933,"""E-waste accepted: ICT equipment, Batteries and Lamps only""","""https://alba-ewaste.sg""",1.369236276,103.8487222
478,"""CHALLENGER @ BUGIS JUNCTION BASEMENT 1""","""2. Retailer E-bin""","""200 VICTORIA STREET, BUGIS JUNCTION, #B1-26, IN-STORE""",188021,188021,"""E-waste accepted: ICT equipment, Batteries and Lamps only""","""https://alba-ewaste.sg""",1.299112875,103.8554112
479,"""CHALLENGER @ BUGIS JUNCTION LEVEL 3""","""2. Retailer E-bin""","""200 VICTORIA STREET, BUGIS JUNCTION, #03-10E, IN-STORE""",188021,188021,"""E-waste accepted: ICT equipment, Batteries and Lamps only""","""https://alba-ewaste.sg""",1.299112875,103.8554112
480,"""CHALLENGER @ CHANGI CITY POINT""","""2. Retailer E-bin""","""5 CHANGI BUSINESS PARK CENTRAL 1, CHANGI CITY POINT, #01-56, IN-STORE""",486038,486038,"""E-waste accepted: ICT equipment, Batteries and Lamps only""","""https://alba-ewaste.sg""",1.334083638,103.962946
481,"""CHALLENGER @ EASTPOINT MALL""","""2. Retailer E-bin""","""3 SIMEI STREET 6, EASTPOINT MALL, #B1-08, IN-STORE""",528833,528833,"""E-waste accepted: ICT equipment, Batteries and Lamps only""","""https://alba-ewaste.sg""",1.342691998,103.9530508
482,"""CHALLENGER @ HOUGANG MALL""","""2. Retailer E-bin""","""90 HOUGANG AVENUE 10, HOUGANG MALL, #02-13, IN-STORE""",538766,538766,"""E-waste accepted: ICT equipment, Batteries and Lamps only""","""https://alba-ewaste.sg""",1.372483087,103.8937881
483,"""CHALLENGER @ IMM""","""2. Retailer E-bin""","""2 JURONG EAST STREET 21, IMM, #02-23, IN-STORE""",609601,609601,"""E-waste accepted: ICT equipment, Batteries and Lamps only""","""https://alba-ewaste.sg""",1.334917588,103.7468771
484,"""CHALLENGER @ JEM""","""2. Retailer E-bin""","""50 JURONG GATEWAY ROAD, JEM, #04-01, IN-STORE""",608549,608549,"""E-waste accepted: ICT equipment, Batteries and Lamps only""","""https://alba-ewaste.sg""",1.33255233,103.7432622
485,"""CHALLENGER @ JURONG POINT""","""2. Retailer E-bin""","""1 JURONG WEST CENTRAL 2, JURONG POINT, #B1-94, IN-STORE""",648886,648886,"""E-waste accepted: ICT equipment, Batteries and Lamps only""","""https://alba-ewaste.sg""",1.339452004,103.706685
486,"""CHALLENGER @ NEX MALL""","""2. Retailer E-bin""","""23 SERANGOON CENTRAL, NEX MALL, #03-33/34, IN-STORE""",556083,556083,"""E-waste accepted: ICT equipment, Batteries and Lamps only""","""https://alba-ewaste.sg""",1.350675514,103.8718616
487,"""CHALLENGER @ NORTHPOINT SHOPPING CENTRE""","""2. Retailer E-bin""","""930 YISHUN AVE 2, #03-90/10""",769098,769098,"""E-waste accepted: ICT equipment, Batteries and Lamps only""","""https://alba-ewaste.sg""",1.429244143,103.8361072
488,"""CHALLENGER @ PAYA LEBAR QUARTER(PLQ)""","""2. Retailer E-bin""","""10 PAYA LEBAR ROAD, PAYA LEBAR QUARTER(PLQ), #04-01, IN-STORE""",409057,409057,"""E-waste accepted: ICT equipment, Batteries and Lamps only""","""https://alba-ewaste.sg""",1.317561159,103.8928367
489,"""CHALLENGER @ PLAZA SINGAPURA""","""2. Retailer E-bin""","""68 ORCHARD ROAD, PLAZA SINGAPURA, #04-12, IN-STORE""",238839,238839,"""E-waste accepted: ICT equipment, Batteries and Lamps only""","""https://alba-ewaste.sg""",1.300820718,103.8450673
490,"""CHALLENGER @ RAFFLES CITY SHOPPING CENTRE""","""2. Retailer E-bin""","""252 NORTH BRIDGE RD, #03-22/23""",179103,179103,"""E-waste accepted: ICT equipment, Batteries and Lamps only""","""https://alba-ewaste.sg""",1.293760281,103.8527683
491,"""CHALLENGER @ SUN PLAZA""","""2. Retailer E-bin""","""30 SEMBAWANG DRIVE, SUN PLAZA, #02-06, BACK OF STORE""",757713,757713,"""E-waste accepted: ICT equipment, Batteries and Lamps only""","""https://alba-ewaste.sg""",1.448200366,103.8195301
492,"""CHALLENGER @ TAMPINES 1""","""2. Retailer E-bin""","""10 TAMPINES CENTRAL 1, TAMPINES 1, #04-25, IN-STORE REPAIR COUNTER""",529536,529536,"""E-waste accepted: ICT equipment, Batteries and Lamps only""","""https://alba-ewaste.sg""",1.354323212,103.9451412
493,"""CHALLENGER @ TIONG BAHRU PLAZA""","""2. Retailer E-bin""","""302 TIONG BAHRU ROAD, TIONG BAHRU PLAZA, #03-19, IN-STORE""",168732,168732,"""E-waste accepted: ICT equipment, Batteries and Lamps only""","""https://alba-ewaste.sg""",1.286463454,103.8269351
495,"""COURTS @ 460 TOA PAYOH LORONG 6""","""2. Retailer E-bin""","""460 TOA PAYOH LORONG 6, MAIN ENTRANCE""",310460,310460,"""E-waste accepted: ICT equipment, Batteries and Lamps only""","""https://alba-ewaste.sg""",1.33201387,103.8498495
496,"""COURTS @ ANG MO KIO AVE 6""","""2. Retailer E-bin""","""730 ANG MO KIO AVE 6, STORE REAR ENTRANCE""",560730,560730,"""E-waste accepted: ICT equipment, Batteries and Lamps only""","""https://alba-ewaste.sg""",1.373433693,103.8457652
497,"""COURTS @ CAUSEWAY POINT""","""2. Retailer E-bin""","""1 WOODLANDS SQUARE, CAUSEWAY POINT, #04-19/20, MAIN ENTRANCE""",738099,738099,"""E-waste accepted: ICT equipment, Batteries and Lamps only""","""https://alba-ewaste.sg""",1.435900079,103.7857958
498,"""COURTS @ COURTS MEGASTORE""","""2. Retailer E-bin""","""50 TAMPINES NORTH DRIVE 2, COURTS MEGASTORE, LEVEL 1 CASHIER AREA""",528766,528766,"""E-waste accepted: ICT equipment, Batteries and Lamps only""","""https://alba-ewaste.sg""",1.373623361,103.9338059
499,"""COURTS @ EASTPOINT MALL""","""2. Retailer E-bin""","""3 SIMEI STREET 6, EASTPOINT MALL, #04-07, MAIN ENTRANCE""",528833,528833,"""E-waste accepted: ICT equipment, Batteries and Lamps only""","""https://alba-ewaste.sg""",1.342691998,103.9530508
500,"""COURTS @ JEM""","""2. Retailer E-bin""","""50 JURONG GATEWAY ROAD, JEM, #04-30, MAIN ENTRANCE""",608549,608549,"""E-waste accepted: ICT equipment, Batteries and Lamps only""","""https://alba-ewaste.sg""",1.33255233,103.7432622
501,"""COURTS @ JURONG POINT""","""2. Retailer E-bin""","""1 JURONG WEST CENTRAL, JURONG POINT, #02-05, MAIN ENTRANCE""",648886,648886,"""E-waste accepted: ICT equipment, Batteries and Lamps only""","""https://alba-ewaste.sg""",1.339452004,103.706685
502,"""COURTS NOJIMA @ THE HEEREN""","""2. Retailer E-bin""","""260 ORCHARD ROAD, THE HEEREN""",238855,238855,"""E-waste accepted: ICT equipment, Batteries and Lamps only""","""https://alba-ewaste.sg""",1.302651601,103.8373672
503,"""FAIRPRICE @ 8 CHANGI BUSINESS PARK AVE 1""","""2. Retailer E-bin""","""8 CHANGI BUSINESS PARK AVE 1, #01-51 &, #02-51, LEVEL 2 BACK OF STORE""",486018,486018,"""E-waste accepted: ICT equipment, Batteries and Lamps only""","""https://alba-ewaste.sg""",1.334906513,103.9638798
504,"""FAIRPRICE @ ANG MO KIO HUB""","""2. Retailer E-bin""","""53 ANG MO KIO AVE 3, ANG MO KIO HUB, #B2-40, CASHIER EXIT AREA""",569933,569933,"""E-waste accepted: ICT equipment, Batteries and Lamps only""","""https://alba-ewaste.sg""",1.369236276,103.8487222
505,"""FAIRPRICE @ HOUGANG 1""","""2. Retailer E-bin""","""1 HOUGANG ST 91, HOUGANG 1, #02-01, ESCALATOR WALKWAY""",538692,538692,"""E-waste accepted: ICT equipment, Batteries and Lamps only""","""https://alba-ewaste.sg""",1.375614641,103.8794835
506,"""FAIRPRICE @ JEM""","""2. Retailer E-bin""","""50 JURONG GATEWAY RD, JEM, #B1-21/22 & #B3-01, CASHIER AREA""",608549,608549,"""E-waste accepted: ICT equipment, Batteries and Lamps only""","""https://alba-ewaste.sg""",1.33255233,103.7432622
507,"""FAIRPRICE @ JURONG POINT""","""2. Retailer E-bin""","""63 JURONG WEST CENTRAL 3, JURONG POINT, #03-01, CASHIER AREA""",648331,648331,"""E-waste accepted: ICT equipment, Batteries and Lamps only""","""https://alba-ewaste.sg""",1.33931504,103.705351
508,"""FAIRPRICE @ KALLANG WAVE MALL""","""2. Retailer E-bin""","""1 STADIUM PLACE LEVEL 1 #01-29, CASHIER AREA""",397628,397628,"""E-waste accepted: ICT equipment, Batteries and Lamps only""","""https://alba-ewaste.sg""",1.303075152,103.8731497
509,"""FAIRPRICE @ NEX MALL""","""2. Retailer E-bin""","""23 SERANGOON CENTRAL, NEX MALL, #03-42, IN-STORE""",556083,556083,"""E-waste accepted: ICT equipment, Batteries and Lamps only""","""https://alba-ewaste.sg""",1.350675514,103.8718616
510,"""FAIRPRICE @ PARKWAY PARADE""","""2. Retailer E-bin""","""80 MARINE PARADE RD, PARKWAY PARADE, #03-28, CASHIER AREA""",449269,449269,"""E-waste accepted: ICT equipment, Batteries and Lamps only""","""https://alba-ewaste.sg""",1.30106068,103.9053395
512,"""GAIN CITY @ ANG MO KIO INDUSTIRAL PARK 2""","""2. Retailer E-bin""","""8 ANG MO KIO INDUSTRIAL PARK 2, MAIN ENTRANCE""",569500,569500,"""E-waste accepted: ICT equipment, Batteries and Lamps only""","""https://alba-ewaste.sg""",1.371677174,103.8646465
513,"""GAIN CITY @ GAIN CITY MEGASTORE @ SUNGEI KADUT""","""2. Retailer E-bin""","""71 SUNGEI KADUT DRIVE, GAIN CITY MEGASTORE @ SUNGEI KADUT, LEVEL 1 LIFT LOBBY""",729577,729577,"""E-waste accepted: ICT equipment, Batteries and Lamps only""","""https://alba-ewaste.sg""",1.412863865,103.7460157
515,"""GAIN CITY @ TAMPINES 1""","""2. Retailer E-bin""","""10 TAMPINES CENTRAL 1, TAMPINES 1, #B1-09, MAIN ENTRANCE""",529536,529536,"""E-waste accepted: ICT equipment, Batteries and Lamps only""","""https://alba-ewaste.sg""",1.354323212,103.9451412
517,"""HARVEY NORMAN @ BUKIT PANJANG PLAZA""","""2. Retailer E-bin""","""1 JELEBU ROAD, BUKIT PANJANG PLAZA, #03-06, SIDE ENTRANCE""",677743,677743,"""E-waste accepted: ICT equipment, Batteries and Lamps only""","""https://alba-ewaste.sg""",1.380522395,103.7640514
518,"""HARVEY NORMAN @ DJITSUN MALL""","""2. Retailer E-bin""","""5 ANG MO KIO CENTRAL 3, DJITSUN MALL, #02-01/02, BESIDE CASHIER COUNTER""",569663,569663,"""E-waste accepted: ICT equipment, Batteries and Lamps only""","""https://alba-ewaste.sg""",1.37286218,103.847645
519,"""HARVEY NORMAN @ HOUGANG MALL""","""2. Retailer E-bin""","""90 HOUGANG AVENUE 10, HOUGANG MALL, #04-15, IN-STORE""",538766,538766,"""E-waste accepted: ICT equipment, Batteries and Lamps only""","""https://alba-ewaste.sg""",1.372483087,103.8937881
520,"""HARVEY NORMAN @ JURONG POINT""","""2. Retailer E-bin""","""1 JURONG WEST CENTRAL 2, JURONG POINT, #03-37, IN-STORE""",648886,648886,"""E-waste accepted: ICT equipment, Batteries and Lamps only""","""https://alba-ewaste.sg""",1.339452004,103.706685
522,"""HARVEY NORMAN @ NORTHPOINT CITY""","""2. Retailer E-bin""","""930 YISHUN AVENUE 2, NORTHPOINT CITY, SOUTH WING, #B1-136/138, OUTLET ENTRANCE""",769098,769098,"""E-waste accepted: ICT equipment, Batteries and Lamps only""","""https://alba-ewaste.sg""",1.429244143,103.8361072
523,"""HARVEY NORMAN @ PARKWAY PARADE""","""2. Retailer E-bin""","""80 MARINE PARADE ROAD, PARKWAY PARADE, #02-34, IN-STORE""",449269,449269,"""E-waste accepted: ICT equipment, Batteries and Lamps only""","""https://alba-ewaste.sg""",1.30106068,103.9053395
524,"""HARVEY NORMAN @ SELETAR MALL""","""2. Retailer E-bin""","""33 SENGKANG WEST AVE, SELETAR MALL, #03-25, IN-STORE""",797653,797653,"""E-waste accepted: ICT equipment, Batteries and Lamps only""","""https://alba-ewaste.sg""",1.391315491,103.8762132
526,"""HARVEY NORMAN @ THE CENTREPOINT""","""2. Retailer E-bin""","""176 ORCHARD ROAD, THE CENTREPOINT, #03-31""",238843,238843,"""E-waste accepted: ICT equipment, Batteries and Lamps only""","""https://alba-ewaste.sg""",1.301514467,103.8400544
527,"""HARVEY NORMAN @ VIVA BUSINESS PARK""","""2. Retailer E-bin""","""750B CHAI CHEE ROAD #01-01 TO 06, TO 12, #02-02 TO 06 BUSINESS PARK, #01-09, IN-STORE""",469002,469002,"""E-waste accepted: ICT equipment, Batteries and Lamps only""","""https://alba-ewaste.sg""",1.323159298,103.92098
528,"""HARVEY NORMAN @ WEST MALL""","""2. Retailer E-bin""","""1 BUKIT BATOK CENTRAL LINK, WEST MALL, #03-06 TO 09, IN-STORE WALKWAY""",658713,658713,"""E-waste accepted: ICT equipment, Batteries and Lamps only""","""https://alba-ewaste.sg""",1.350375416,103.7491239
529,"""HARVEY NORMAN @ WESTGATE""","""2. Retailer E-bin""","""3 GATEWAY DRIVE, WESTGATE, #B1-32, IN-STORE""",608532,608532,"""E-waste accepted: ICT equipment, Batteries and Lamps only""","""https://alba-ewaste.sg""",1.33415752,103.7427665
530,"""LENOVO FLAGSHIP @ FUNAN MALL""","""2. Retailer E-bin""","""107 NORTH BRIDGE ROAD, FUNAN MALL, #03-19/20, IN-STORE""",179105,179105,"""E-waste accepted: ICT equipment, Batteries and Lamps only""","""https://alba-ewaste.sg""",1.291347597,103.8499898
531,"""MEGA DISCOUNT STORE @ KALLANG LEISURE PARK""","""2. Retailer E-bin""","""5 STADIUM WALK, KALLANG LEISURE PARK, #01-46-50, STORE REAR ENTRANCE""",397693,397693,"""E-waste accepted: ICT equipment, Batteries and Lamps only""","""https://alba-ewaste.sg""",1.302221774,103.8761527
532,"""MEGA DISCOUNT STORE @ UNITED SQUARE""","""2. Retailer E-bin""","""101 THOMSON ROAD, UNITED SQUARE, #B1-56D/E, MAIN ENTRANCE""",307591,307591,"""E-waste accepted: ICT equipment, Batteries and Lamps only""","""https://alba-ewaste.sg""",1.317334643,103.8434632
533,"""MUSTAFA CENTRE""","""2. Retailer E-bin""","""145 SYED ALWI ROAD""",207704,207704,"""E-waste accepted: ICT equipment, Batteries and Lamps only""","""https://alba-ewaste.sg""",1.310534931,103.8550021
534,"""POPULAR SINGAPORE @ BRAS BASAH COMPLEX""","""2. Retailer E-bin""","""231 BRAS BASAH COMPLEX, #04-23/ 33""",180231,180231,"""E-waste accepted: ICT equipment, Batteries and Lamps only""","""https://alba-ewaste.sg""",1.296815259,103.8536195
535,"""SHENG SIONG @ 118 ALJUNIED""","""2. Retailer E-bin""","""118 ALJUNIED AVE 2, #01-100, MAIN ENTRANCE""",380118,380118,"""E-waste accepted: ICT equipment, Batteries and Lamps only""","""https://alba-ewaste.sg""",1.320000402,103.8873631
536,"""SHENG SIONG @ 451 BUKIT BATOK""","""2. Retailer E-bin""","""451 BUKIT BATOK WEST AVENUE 6, #01-10, COMMON CORRIDOR""",650451,650451,"""E-waste accepted: ICT equipment, Batteries and Lamps only""","""https://alba-ewaste.sg""",1.35303718,103.7439426
537,"""SHENG SIONG @ 602A TAMPINES""","""2. Retailer E-bin""","""602A TAMPINES AVENUE 9, #01-01, MAIN ENTRANCE""",521602,521602,"""E-waste accepted: ICT equipment, Batteries and Lamps only""","""https://alba-ewaste.sg""",1.361136458,103.9374256
538,"""SHENG SIONG @ 720 CLEMENTI WEST""","""2. Retailer E-bin""","""720 CLEMENTI WEST ST 2, #01-144, COMMON CORRIDOR""",120720,120720,"""E-waste accepted: ICT equipment, Batteries and Lamps only""","""https://alba-ewaste.sg""",1.302464088,103.763751
539,"""SHENG SIONG @ CANBERRA""","""2. Retailer E-bin""","""105 CANBERRA ST, EAST BROOK @ CANBERRA, #02-05, COMMON CORRIDOR""",750105,750105,"""E-waste accepted: ICT equipment, Batteries and Lamps only""","""https://alba-ewaste.sg""",1.448855647,103.8324092
540,"""SHENG SIONG @ ITE COLLEGE CENTRAL""","""2. Retailer E-bin""","""2 ANG MO KIO DRIVE, #A1-12, NEAR ENTRANCE, BESIDE CHECK IN AREA""",567720,567720,"""E-waste accepted: ICT equipment, Batteries and Lamps only""","""https://alba-ewaste.sg""",1.377892049,103.856412
541,"""SINGTEL @ COMCENTRE""","""2. Retailer E-bin""","""31B EXETER ROAD, COMCENTRE""",239733,239733,"""E-waste accepted: ICT equipment, Batteries and Lamps only""","""https://alba-ewaste.sg""",1.298975502,103.8384064
542,"""STARHUB @ PLAZA SINGAPURA""","""2. Retailer E-bin""","""68 ORCHARD ROAD, PLAZA SINGAPURA, #01-36, IN-STORE""",238839,238839,"""E-waste accepted: ICT equipment, Batteries and Lamps only""","""https://alba-ewaste.sg""",1.300820718,103.8450673
543,"""STARHUB @ TAMPINES CENTRAL""","""2. Retailer E-bin""","""4 TAMPINES CENTRAL 5, TAMPINES CENTRAL, #02-27, IN-STORE""",529510,529510,"""E-waste accepted: ICT equipment, Batteries and Lamps only""","""https://alba-ewaste.sg""",1.352504683,103.9446826
544,"""GIANT @ 181 TOA PAYON LORONG 4""","""3. Manned Collection (Contact staff for disp""","""181 TOA PAYOH LORONG 4, #01-602""",310181,310181,"""E-waste accepted: Batteries and Lamps only""","""https://alba-ewaste.sg""",1.333619362,103.8509787
545,"""GIANT @ PAYA LEBAR SQUARE""","""3. Manned Collection (Contact staff for disp""","""60 PAYA LEBAR ROAD, #B1-01""",409051,409051,"""E-waste accepted: Batteries and Lamps only""","""https://alba-ewaste.sg""",1.31881487,103.8925808
546,"""GIANT @ WOODLANDS MART""","""3. Manned Collection (Contact staff for disp""","""768 WOODLANDS AVENUE 6, #01-33""",730768,730768,"""E-waste accepted: Batteries and Lamps only""","""https://alba-ewaste.sg""",1.445750777,103.7981198
547,"""APPLE @ JEWEL""","""3. Manned Collection (Contact staff for disp""","""78 AIRPORT BOULEVARD, JEWEL, #02-234""",819666,819666,"""E-waste accepted: ICT equipment and Batteries only""","""https://alba-ewaste.sg""",1.360062894,103.9899892
549,"""APPLE @ ORCHARD""","""3. Manned Collection (Contact staff for disp""","""270 ORCHARD ROAD, APPLE ORCHARD""",238857,238857,"""E-waste accepted: ICT equipment and Batteries only""","""https://alba-ewaste.sg""",1.302983123,103.8362839
550,"""M1 @ BUGIS JUNCTION""","""3. Manned Collection (Contact staff for disp""","""80 MIDDLE ROAD, BUGIS JUNCTION, #01-81""",188966,188966,"""E-waste accepted: ICT equipment and Batteries only""","""https://alba-ewaste.sg""",1.298469637,103.854867
551,"""M1 @ CAUSEWAY POINT""","""3. Manned Collection (Contact staff for disp""","""1 WOODLANDS SQUARE, CAUSEWAY POINT, #03-01""",738099,738099,"""E-waste accepted: ICT equipment and Batteries only""","""https://alba-ewaste.sg""",1.435900079,103.7857958
552,"""M1 @ IMM""","""3. Manned Collection (Contact staff for disp""","""2 JURONG EAST STREET 21, IMM, #01-53""",609601,609601,"""E-waste accepted: ICT equipment and Batteries only""","""https://alba-ewaste.sg""",1.334917588,103.7468771
553,"""M1 @ NEX""","""3. Manned Collection (Contact staff for disp""","""23 SERANGOON CENTRAL, NEX, #B1-56""",556083,556083,"""E-waste accepted: ICT equipment and Batteries only""","""https://alba-ewaste.sg""",1.350675514,103.8718616
555,"""M1 @ PARKWAY PARADE""","""3. Manned Collection (Contact staff for disp""","""80 MARINE PARADE ROAD, PARKWAY PARADE, #02-24""",449269,449269,"""E-waste accepted: ICT equipment and Batteries only""","""https://alba-ewaste.sg""",1.30106068,103.9053395
556,"""M1 @ PERANAKAN PLACE COMPLEX""","""3. Manned Collection (Contact staff for disp""","""178B - 180A ORCHARD ROAD, PERANAKAN PLACE COMPLEX""",238845,238845,"""E-waste accepted: ICT equipment and Batteries only""","""https://alba-ewaste.sg""",1.301401197,103.8392783
557,"""M1 @ TAMPINES MALL""","""3. Manned Collection (Contact staff for disp""","""4 TAMPINES CENTRAL 5, TAMPINES MALL, #03-01""",529510,529510,"""E-waste accepted: ICT equipment and Batteries only""","""https://alba-ewaste.sg""",1.352504683,103.9446826
558,"""M1 @ WEST MALL""","""3. Manned Collection (Contact staff for disp""","""1 BUKIT BATOK CENTRAL LINK, WEST MALL, #01-16""",658713,658713,"""E-waste accepted: ICT equipment and Batteries only""","""https://alba-ewaste.sg""",1.350375416,103.7491239
559,"""POPULAR SINGAPORE / URBANWRITE @ UNITED SQUARE""","""3. Manned Collection (Contact staff for disp""","""101 THOMSON ROAD, UNITED SQUARE, #B1-56/56A""",307591,307591,"""E-waste accepted: ICT equipment and Batteries only""","""https://alba-ewaste.sg""",1.317334643,103.8434632
560,"""POPULAR SINGAPORE @ BEDOK MALL""","""3. Manned Collection (Contact staff for disp""","""311 NEW UPPER CHANGI ROAD, BEDOK MALL, #B2-02/35/36""",467360,467360,"""E-waste accepted: ICT equipment and Batteries only""","""https://alba-ewaste.sg""",1.324750542,103.9291892
561,"""POPULAR SINGAPORE @ BUKIT PANJANG PLAZA""","""3. Manned Collection (Contact staff for disp""","""1 JELEBU ROAD, BUKIT PANJANG PLAZA, #03-01""",677743,677743,"""E-waste accepted: ICT equipment and Batteries only""","""https://alba-ewaste.sg""",1.380522395,103.7640514
562,"""POPULAR SINGAPORE @ BUKIT TIMAH PLAZA""","""3. Manned Collection (Contact staff for disp""","""1 JALAN ANAK BUKIT, BUKIT TIMAH PLAZA, #01-16""",588996,588996,"""E-waste accepted: ICT equipment and Batteries only""","""https://alba-ewaste.sg""",1.338631653,103.7785854
563,"""POPULAR SINGAPORE @ CAUSEWAY POINT""","""3. Manned Collection (Contact staff for disp""","""1 WOODLANDS SQUARE, CAUSEWAY POINT, #03-29/30""",738099,738099,"""E-waste accepted: ICT equipment and Batteries only""","""https://alba-ewaste.sg""",1.435900079,103.7857958
564,"""POPULAR SINGAPORE @ CLEMENTI MALL""","""3. Manned Collection (Contact staff for disp""","""3155 COMMONWEALTH AVENUE WEST, CLEMENTI MALL, #05-01 TO 05""",129588,129588,"""E-waste accepted: ICT equipment and Batteries only""","""https://alba-ewaste.sg""",1.315495939,103.7645838
565,"""POPULAR SINGAPORE @ COMPASS ONE""","""3. Manned Collection (Contact staff for disp""","""1 SENG KANG SQUARE, COMPASS ONE, #03-11""",545078,545078,"""E-waste accepted: ICT equipment and Batteries only""","""https://alba-ewaste.sg""",1.392053142,103.8950705
566,"""POPULAR SINGAPORE @ EASTPOINT MALL""","""3. Manned Collection (Contact staff for disp""","""3 SIMEI STREET 6, EASTPOINT MALL, #03-23""",528833,528833,"""E-waste accepted: ICT equipment and Batteries only""","""https://alba-ewaste.sg""",1.342691998,103.9530508
567,"""POPULAR SINGAPORE @ HDB HUB""","""3. Manned Collection (Contact staff for disp""","""530 TOA PAYOH LOR 6, HDB HUB, #02-01""",310530,310530,"""E-waste accepted: ICT equipment and Batteries only""","""https://alba-ewaste.sg""",1.332168106,103.8470864
568,"""POPULAR SINGAPORE @ HEARTLAND MALL - KOVAN""","""3. Manned Collection (Contact staff for disp""","""205 HOUGANG STREET 21, HEARTLAND MALL - KOVAN, #03-00""",530205,530205,"""E-waste accepted: ICT equipment and Batteries only""","""https://alba-ewaste.sg""",1.359541773,103.8851674
569,"""POPULAR SINGAPORE @ HOUGANG MALL""","""3. Manned Collection (Contact staff for disp""","""90 HOUGANG AVENUE, HOUGANG MALL, #03-15""",538766,538766,"""E-waste accepted: ICT equipment and Batteries only""","""https://alba-ewaste.sg""",1.372483087,103.8937881
570,"""POPULAR SINGAPORE @ JUNCTION 8 SHOPPING CENTRE""","""3. Manned Collection (Contact staff for disp""","""9 BISHAN PLACE, JUNCTION 8, #04-02A""",579837,579837,"""E-waste accepted: ICT equipment and Batteries only""","""https://alba-ewaste.sg""",1.350422157,103.8488262
571,"""POPULAR SINGAPORE @ JURONG POINT""","""3. Manned Collection (Contact staff for disp""","""1 JURONG WEST CENTRAL 2, JURONG POINT, #B1-41""",648886,648886,"""E-waste accepted: ICT equipment and Batteries only""","""https://alba-ewaste.sg""",1.339452004,103.706685
572,"""POPULAR SINGAPORE @ LOT ONE SHOPPERS' MALL""","""3. Manned Collection (Contact staff for disp""","""21 CHOA CHU KANG AVENUE 4, LOT ONE, #03-13""",689812,689812,"""E-waste accepted: ICT equipment and Batteries only""","""https://alba-ewaste.sg""",1.385068365,103.7449504
573,"""POPULAR SINGAPORE @ MARINE PARADE CENTRAL""","""3. Manned Collection (Contact staff for disp""","""86 MARINE PARADE CENTRAL, #02-101/102""",440086,440086,"""E-waste accepted: ICT equipment and Batteries only""","""https://alba-ewaste.sg""",1.301737217,103.9067545
574,"""POPULAR SINGAPORE @ NEX MALL""","""3. Manned Collection (Contact staff for disp""","""23 SERANGOON CENTRAL, NEX MALL, #04-59/60""",556083,556083,"""E-waste accepted: ICT equipment and Batteries only""","""https://alba-ewaste.sg""",1.350675514,103.8718616
575,"""POPULAR SINGAPORE @ NORTHPOINT CITY""","""3. Manned Collection (Contact staff for disp""","""930 YISHUN AVENUE 2, NORTHPOINT CITY, #03-12""",769098,769098,"""E-waste accepted: ICT equipment and Batteries only""","""https://alba-ewaste.sg""",1.429244143,103.8361072
576,"""POPULAR SINGAPORE @ OASIS TERRACES""","""3. Manned Collection (Contact staff for disp""","""681 PUNGGOL DRIVE, OASIS TERRACES, #03-15/16""",820681,820681,"""E-waste accepted: ICT equipment and Batteries only""","""https://alba-ewaste.sg""",1.402780157,103.9132151
577,"""POPULAR SINGAPORE @ PARKWAY PARADE""","""3. Manned Collection (Contact staff for disp""","""80 MARINE PARADE ROAD, PARKWAY PARADE, #B-70/71""",449269,449269,"""E-waste accepted: ICT equipment and Batteries only""","""https://alba-ewaste.sg""",1.30106068,103.9053395
578,"""POPULAR SINGAPORE @ PAYA LEBAR QUARTER (PLQ)""","""3. Manned Collection (Contact staff for disp""","""10 PAYA LEBAR ROAD, PAYA LEBAR QUARTER, #03-01/02/03""",409057,409057,"""E-waste accepted: ICT equipment and Batteries only""","""https://alba-ewaste.sg""",1.317561159,103.8928367
579,"""POPULAR SINGAPORE @ SELETAR MALL""","""3. Manned Collection (Contact staff for disp""","""33 SENGKANG WEST AVENUE, SELETAR MALL, #03-06 TO 09""",797653,797653,"""E-waste accepted: ICT equipment and Batteries only""","""https://alba-ewaste.sg""",1.391315491,103.8762132
580,"""POPULAR SINGAPORE @ TAMPINES MALL""","""3. Manned Collection (Contact staff for disp""","""4 TAMPINES CENTRAL 5, TAMPINES MALL, #03-17""",529510,529510,"""E-waste accepted: ICT equipment and Batteries only""","""https://alba-ewaste.sg""",1.352504683,103.9446826
581,"""POPULAR SINGAPORE @ TIONG BAHRU PLAZA""","""3. Manned Collection (Contact staff for disp""","""302 TIONG BAHRU ROAD, TIONG BAHRU PLAZA, #03-115""",168732,168732,"""E-waste accepted: ICT equipment and Batteries only""","""https://alba-ewaste.sg""",1.286463454,103.8269351
582,"""POPULAR SINGAPORE @ UNITED SQUARE""","""3. Manned Collection (Contact staff for disp""","""101 THOMSON ROAD, UNITED SQUARE, #02-22/25""",307591,307591,"""E-waste accepted: ICT equipment and Batteries only""","""https://alba-ewaste.sg""",1.317334643,103.8434632
584,"""POPULAR SINGAPORE @ WEST MALL""","""3. Manned Collection (Contact staff for disp""","""1 BUKIT BATOK CENTRAL LINK, WEST MALL, #04-02""",658713,658713,"""E-waste accepted: ICT equipment and Batteries only""","""https://alba-ewaste.sg""",1.350375416,103.7491239
585,"""POPULAR SINGAPORE @ WESTGATE""","""3. Manned Collection (Contact staff for disp""","""3 GATEWAY DRIVE, WESTGATE, #04-26/27""",608532,608532,"""E-waste accepted: ICT equipment and Batteries only""","""https://alba-ewaste.sg""",1.33415752,103.7427665
586,"""POPULAR SINGAPORE @ WHITE SANDS""","""3. Manned Collection (Contact staff for disp""","""1 PASIR RIS CENTRAL STREET 3, WHITE SANDS, #04-12/13""",518457,518457,"""E-waste accepted: ICT equipment and Batteries only""","""https://alba-ewaste.sg""",1.372287616,103.9497339
587,"""SONY @ 313 SOMERSET""","""3. Manned Collection (Contact staff for disp""","""313 ORCHARD ROAD, 313 SOMERSET, #02-28""",238895,238895,"""E-waste accepted: ICT equipment and Batteries only""","""https://alba-ewaste.sg""",1.301014364,103.8383607
588,"""SONY @ NEX""","""3. Manned Collection (Contact staff for disp""","""23 SERANGOON CENTRAL, NEX, #03-21""",556083,556083,"""E-waste accepted: ICT equipment and Batteries only""","""https://alba-ewaste.sg""",1.350675514,103.8718616
589,"""SONY @ WISMA ATRIA""","""3. Manned Collection (Contact staff for disp""","""435 ORCHARD ROAD, WISMA ATRIA, #03-01""",238877,238877,"""E-waste accepted: ICT equipment and Batteries only""","""https://alba-ewaste.sg""",1.303698907,103.8331896
590,"""STARHUB @ PLAZA SINGAPURA""","""3. Manned Collection (Contact staff for disp""","""68 ORCHARD ROAD, STARHUB @ PLAZA SINGAPURA, #01-36, IN-STORE""",238839,238839,"""E-waste accepted: ICT equipment and Batteries only""","""https://alba-ewaste.sg""",1.300820718,103.8450673
591,"""STARHUB @ TAMPINES CENTRAL""","""3. Manned Collection (Contact staff for disp""","""4 TAMPINES CENTRAL 5, STARHUB @ TAMPINES, #02-27, IN-STORE""",529510,529510,"""E-waste accepted: ICT equipment and Batteries only""","""https://alba-ewaste.sg""",1.352504683,103.9446826
592,"""COURTS @ FUNAN""","""3. Manned Collection (Contact staff for disp""","""107 NORTH BRIDGE ROAD, FUNAN, #03-01""",179105,179105,"""E-waste accepted: ICT equipment, Batteries and Lamps only""","""https://alba-ewaste.sg""",1.291347597,103.8499898
593,"""COURTS @ LOT ONE""","""3. Manned Collection (Contact staff for disp""","""21 CHOA CHU KANG AVE 4, LOT ONE, #03-01""",689812,689812,"""E-waste accepted: ICT equipment, Batteries and Lamps only""","""https://alba-ewaste.sg""",1.385068365,103.7449504
594,"""COURTS @ SIM LIAN BUILDING""","""3. Manned Collection (Contact staff for disp""","""205 UPPER BUKIT TIMAH ROAD, SIM LIAN BUILDING""",588181,588181,"""E-waste accepted: ICT equipment, Batteries and Lamps only""","""https://alba-ewaste.sg""",1.344491554,103.7743211
595,"""COURTS @ TAMPINES MALL""","""3. Manned Collection (Contact staff for disp""","""4 TAMPINES CENTRAL 5, TAMPINES MALL, #03-16/16A""",529510,529510,"""E-waste accepted: ICT equipment, Batteries and Lamps only""","""https://alba-ewaste.sg""",1.352504683,103.9446826
596,"""SHELL ALEXANDRA""","""4. Non-regulated products recycling""","""358 ALEXANDRA ROAD""",159950,159950,"""E-waste accepted: Non-regulated products only; E.g. Small household appliances, gaming consoles, audio systems, power supplies""","""https://www.facebook.com/metalosg/""",1.290669962,103.8068551
597,"""SHELL ANG MO KIO""","""4. Non-regulated products recycling""","""3535 ANG MO KIO AVENUE 6""",569839,569839,"""E-waste accepted: Non-regulated products only; E.g. Small household appliances, gaming consoles, audio systems, power supplies""","""https://www.facebook.com/metalosg/""",1.367799814,103.84475
598,"""SHELL BOON LAY""","""4. Non-regulated products recycling""","""2 BOON LAY AVENUE""",649960,649960,"""E-waste accepted: Non-regulated products only; E.g. Small household appliances, gaming consoles, audio systems, power supplies""","""https://www.facebook.com/metalosg/""",1.343959836,103.7077882
599,"""SHELL BRADDELL""","""4. Non-regulated products recycling""","""110 BRADDELL ROAD""",359914,359914,"""E-waste accepted: Non-regulated products only; E.g. Small household appliances, gaming consoles, audio systems, power supplies""","""https://www.facebook.com/metalosg/""",1.344583529,103.8645579
600,"""SHELL BUKIT BATOK (AVE 3)""","""4. Non-regulated products recycling""","""11 BUKIT BATOK WEST AVENUE 3""",659166,659166,"""E-waste accepted: Non-regulated products only; E.g. Small household appliances, gaming consoles, audio systems, power supplies""","""https://www.facebook.com/metalosg/""",1.350227426,103.7384331
601,"""SHELL BUKIT BATOK (AVE 6)""","""4. Non-regulated products recycling""","""28 BUKIT BATOK EAST AVENUE 6""",659760,659760,"""E-waste accepted: Non-regulated products only; E.g. Small household appliances, gaming consoles, audio systems, power supplies""","""https://www.facebook.com/metalosg/""",1.347626724,103.7648885
602,"""SHELL CHOA CHU KANG""","""4. Non-regulated products recycling""","""20 CHOA CHU KANG DRIVE""",689717,689717,"""E-waste accepted: Non-regulated products only; E.g. Small household appliances, gaming consoles, audio systems, power supplies""","""https://www.facebook.com/metalosg/""",1.385605526,103.7464818
603,"""SHELL EAST COAST""","""4. Non-regulated products recycling""","""338 EAST COAST ROAD""",428961,428961,"""E-waste accepted: Non-regulated products only; E.g. Small household appliances, gaming consoles, audio systems, power supplies""","""https://www.facebook.com/metalosg/""",1.308211829,103.909783
604,"""SHELL HAVELOCK""","""4. Non-regulated products recycling""","""548 HAVELOCK ROAD""",169637,169637,"""E-waste accepted: Non-regulated products only; E.g. Small household appliances, gaming consoles, audio systems, power supplies""","""https://www.facebook.com/metalosg/""",1.289846869,103.8324148
605,"""SHELL JURONG WEST""","""4. Non-regulated products recycling""","""21 JURONG WEST AVENUE 5""",649481,649481,"""E-waste accepted: Non-regulated products only; E.g. Small household appliances, gaming consoles, audio systems, power supplies""","""https://www.facebook.com/metalosg/""",1.350086666,103.7012136
606,"""SHELL MARSILING""","""4. Non-regulated products recycling""","""10 MARSILING ROAD""",739109,739109,"""E-waste accepted: Non-regulated products only; E.g. Small household appliances, gaming consoles, audio systems, power supplies""","""https://www.facebook.com/metalosg/""",1.438325338,103.7754157
607,"""SHELL NEWTON HOOPER""","""4. Non-regulated products recycling""","""150 BUKIT TIMAH ROAD""",229846,229846,"""E-waste accepted: Non-regulated products only; E.g. Small household appliances, gaming consoles, audio systems, power supplies""","""https://www.facebook.com/metalosg/""",1.311305266,103.8431747
608,"""SHELL PASIR RIS""","""4. Non-regulated products recycling""","""1 NEW LOYANG LINK""",506931,506931,"""E-waste accepted: Non-regulated products only; E.g. Small household appliances, gaming consoles, audio systems, power supplies""","""https://www.facebook.com/metalosg/""",1.365762941,103.9672385
609,"""SHELL PAYA LEBAR""","""4. Non-regulated products recycling""","""98 PAYA LEBAR ROAD""",409008,409008,"""E-waste accepted: Non-regulated products only; E.g. Small household appliances, gaming consoles, audio systems, power supplies""","""https://www.facebook.com/metalosg/""",1.32175499,103.8916491
610,"""SHELL PAYA LEBAR MACPHERSON""","""4. Non-regulated products recycling""","""255 PAYA LEBAR ROAD""",409037,409037,"""E-waste accepted: Non-regulated products only; E.g. Small household appliances, gaming consoles, audio systems, power supplies""","""https://www.facebook.com/metalosg/""",1.331765464,103.8888987
611,"""SHELL SERANGOON GARDEN""","""4. Non-regulated products recycling""","""49 SERANGOON GARDEN WAY""",555944,555944,"""E-waste accepted: Non-regulated products only; E.g. Small household appliances, gaming consoles, audio systems, power supplies""","""https://www.facebook.com/metalosg/""",1.363282088,103.8672595
612,"""SHELL SIGLAP""","""4. Non-regulated products recycling""","""40 UPPER EAST COAST ROAD""",455212,455212,"""E-waste accepted: Non-regulated products only; E.g. Small household appliances, gaming consoles, audio systems, power supplies""","""https://www.facebook.com/metalosg/""",1.312552974,103.926541
613,"""SHELL SIMPANG BEDOK""","""4. Non-regulated products recycling""","""331 BEDOK ROAD""",469504,469504,"""E-waste accepted: Non-regulated products only; E.g. Small household appliances, gaming consoles, audio systems, power supplies""","""https://www.facebook.com/metalosg/""",1.330861444,103.9475882
614,"""SHELL TAMPINES""","""4. Non-regulated products recycling""","""9 TAMPINES AVENUE 2""",529731,529731,"""E-waste accepted: Non-regulated products only; E.g. Small household appliances, gaming consoles, audio systems, power supplies""","""https://www.facebook.com/metalosg/""",1.349228763,103.9477044
615,"""SHELL THOMSON""","""4. Non-regulated products recycling""","""324 THOMSON ROAD""",307672,307672,"""E-waste accepted: Non-regulated products only; E.g. Small household appliances, gaming consoles, audio systems, power supplies""","""https://www.facebook.com/metalosg/""",1.324191511,103.8421664
616,"""SHELL TIONG BAHRU""","""4. Non-regulated products recycling""","""603 TIONG BAHRU ROAD""",158788,158788,"""E-waste accepted: Non-regulated products only; E.g. Small household appliances, gaming consoles, audio systems, power supplies""","""https://www.facebook.com/metalosg/""",1.288374253,103.8195173
617,"""SHELL TOA PAYOH""","""4. Non-regulated products recycling""","""248 TOA PAYOH LORONG 1""",319755,319755,"""E-waste accepted: Non-regulated products only; E.g. Small household appliances, gaming consoles, audio systems, power supplies""","""https://www.facebook.com/metalosg/""",1.341089646,103.8489006
618,"""SHELL WOODLANDS""","""4. Non-regulated products recycling""","""20 WOODLANDS AVENUE 9""",738954,738954,"""E-waste accepted: Non-regulated products only; E.g. Small household appliances, gaming consoles, audio systems, power supplies""","""https://www.facebook.com/metalosg/""",1.444311655,103.7900674
619,"""SHELL YISHUN""","""4. Non-regulated products recycling""","""1 YISHUN STREET 11""",768642,768642,"""E-waste accepted: Non-regulated products only; E.g. Small household appliances, gaming consoles, audio systems, power supplies""","""https://www.facebook.com/metalosg/""",1.430802057,103.8330112
620,"""ANG MO KIO HUB""","""4. Non-regulated products recycling""","""53 ANG MO KIO AVENUE 3, AMK HUB, #03-13""",569933,569933,"""E-waste accepted: Non-regulated products only; E.g. Small household appliances, gaming consoles, audio systems, power supplies""","""https://www.kgs.com.sg/""",1.369236276,103.8487222
622,"""JURONG POINT""","""4. Non-regulated products recycling""","""1 JURONG WEST CENTRAL 2, JURONG POINT, BESIDES SKECHERS #01-16H/J""",648886,648886,"""E-waste accepted: Non-regulated products only; E.g. Small household appliances, gaming consoles, audio systems, power supplies""","""https://www.kgs.com.sg/""",1.339452004,103.706685
623,"""WISMA ATRIA""","""4. Non-regulated products recycling""","""435 ORCHARD ROAD, WISMA ATRIA, LEVEL 6 BESIDE CARPARK""",238877,238877,"""E-waste accepted: Non-regulated products only; E.g. Small household appliances, gaming consoles, audio systems, power supplies""","""https://www.kgs.com.sg/""",1.303698907,103.8331896
624,"""SENGKANG GENERAL HOSPITAL""","""4. Non-regulated products recycling""","""110 SENGKANG EAST WAY, SENGKANG GENERAL HOSPITAL, LEVEL 8""",544886,544886,"""E-waste accepted: Non-regulated products only; E.g. Small household appliances, gaming consoles, audio systems, power supplies""","""https://www.kgs.com.sg/""",1.394299417,103.8930013
625,"""CHANGI GENERAL HOSPITAL""","""4. Non-regulated products recycling""","""2 SIMEI STREET 3, CHANGI GENERAL HOSPITAL""",529889,529889,"""E-waste accepted: Non-regulated products only; E.g. Small household appliances, gaming consoles, audio systems, power supplies""","""https://www.kgs.com.sg/""",1.340695382,103.9494212
626,"""ESR BIZPARK@CHANGI""","""4. Non-regulated products recycling""","""8 CHANGI BUSINESS PARK AVENUE 1, ESR BIZPARK #01-51""",486018,486018,"""E-waste accepted: Non-regulated products only; E.g. Small household appliances, gaming consoles, audio systems, power supplies""","""https://www.kgs.com.sg/""",1.334906513,103.9638798
627,"""SEMBAWANG SHOPPING CENTRE""","""4. Non-regulated products recycling""","""604 SEMBAWANG ROAD, SEMBAWANG SHOPPING CENTRE, 2F""",758459,758459,"""E-waste accepted: Non-regulated products only; E.g. Small household appliances, gaming consoles, audio systems, power supplies""","""https://www.kgs.com.sg/""",1.441853079,103.8249704
628,"""23 GHIM MOH LINK""","""4. Non-regulated products recycling""","""23 GHIM MOH LINK""",271023,271023,"""E-waste accepted: Non-regulated products only; E.g. Small household appliances, gaming consoles, audio systems, power supplies""","""https://www.kgs.com.sg/""",1.308635628,103.786332
629,"""SINGPOST CENTRE""","""4. Non-regulated products recycling""","""10 EUNOS ROAD 8, SINGPOST CENTRE""",408600,408600,"""E-waste accepted: Non-regulated products only; E.g. Small household appliances, gaming consoles, audio systems, power supplies""","""https://www.kgs.com.sg/""",1.318931326,103.8944829
630,"""SINGAPORE GENERAL HOSPITAL""","""4. Non-regulated products recycling""","""20 COLLEGE ROAD, ACADEMIA BUILDING""",169856,169856,"""E-waste accepted: Non-regulated products only; E.g. Small household appliances, gaming consoles, audio systems, power supplies""","""https://www.kgs.com.sg/""",1.281670381,103.8355855
631,"""SOUTH BEACH AVENUE""","""4. Non-regulated products recycling""","""26 BEACH ROAD, SOUTH BEACH AVENUE""",189768,189768,"""E-waste accepted: Non-regulated products only; E.g. Small household appliances, gaming consoles, audio systems, power supplies""","""https://www.kgs.com.sg/""",1.294431718,103.8560109
632,"""TZU CHI HUMANISTIC YOUTH CENTRE""","""4. Non-regulated products recycling""","""30A YISHUN CENTRAL 1, TZU CHI HUMANISTIC YOUTH CENTRE""",768796,768796,"""E-waste accepted: Non-regulated products only; E.g. Small household appliances, gaming consoles, audio systems, power supplies""","""https://www.kgs.com.sg/""",1.426537512,103.8383334
634,"""336A SEMBAWANG CRESCENT MSCP""","""4. Non-regulated products recycling""","""336A SEMBAWANG CRESCENT""",751336,751336,"""E-waste accepted: Non-regulated products only; E.g. Small household appliances, gaming consoles, audio systems, power supplies""","""https://www.kgs.com.sg/""",1.446638625,103.8150105
635,"""406A SEMBAWANG DRIVE MSCP""","""4. Non-regulated products recycling""","""406A SEMBAWANG DRIVE""",751406,751406,"""E-waste accepted: Non-regulated products only; E.g. Small household appliances, gaming consoles, audio systems, power supplies""","""https://www.kgs.com.sg/""",1.452736243,103.8172493
636,"""NORTHPOINT CITY""","""4. Non-regulated products recycling""","""930 YISHUN AVENUE 2, NORTHPOINT CITY, SOUTH WING, LEVEL 2""",769098,769098,"""E-waste accepted: Non-regulated products only; E.g. Small household appliances""","""gaming consoles, audio systems, power supplies""",1.429244143,103.8361072
637,"""CHENG SAN COMMUNITY CENTRE""","""4. Non-regulated products recycling""","""6 ANG MO KIO STREET 53, CHENG SAN COMMUNITY CENTRE, LEVEL 1""",569205,569205,"""E-waste accepted: Non-regulated products only; E.g. Small household appliances, gaming consoles, audio systems, power supplies""","""https://www.kgs.com.sg/""",1.371780454,103.84957
